; ============================================================
; ADAPTIVE REPAIR G-CODE
; Layer 0   Z=0.400 mm
; Defects: 29
; ============================================================

G21          ; millimetres
G90          ; absolute positioning
G58          ; work coordinate system
G92 A0

; 
; >>> PICKING UP MILLING TOOL
; --- TOOL CHANGE: milling tool ---
G1 Z50.000 F600
G0 X0.000 Y0.000 F7800
M6 T1  ; pick up milling tool
; Tool T1 loaded
M3 S1000  ; spindle on

; 
; >>> PHASE 1: MILL ALL BOUNDING BOXES (29)
;     Overextrusion  : 3 regions (skim excess)
;     Underextrusion : 26 regions (cut clean cavity)
;     Travel optimised: 535.6 -> 201.3 mm (62% saved)
; 
; --- Mill cavity: Underextrusion  conf=0.87 ---
;     bed region: (-5.54,0.54) -> (-1.08,4.89)
G1 Z2.400 F600
G0 X-5.536 Y0.543 F7800
G1 Z0.400 F600
G1 X-1.080 Y0.543 F200
G1 X-1.080 Y1.776 F200
G1 X-5.536 Y1.776 F200
G1 X-5.536 Y3.009 F200
G1 X-1.080 Y3.009 F200
G1 X-1.080 Y4.242 F200
G1 X-5.536 Y4.242 F200
G1 Z2.400 F600
; --- end mill cavity ---

; --- Mill cavity: Underextrusion  conf=0.89 ---
;     bed region: (-0.94,3.50) -> (3.18,7.70)
G1 Z2.400 F600
G0 X-0.936 Y3.499 F7800
G1 Z0.400 F600
G1 X3.175 Y3.499 F200
G1 X3.175 Y4.732 F200
G1 X-0.936 Y4.732 F200
G1 X-0.936 Y5.965 F200
G1 X3.175 Y5.965 F200
G1 X3.175 Y7.198 F200
G1 X-0.936 Y7.198 F200
G1 Z2.400 F600
; --- end mill cavity ---

; --- Mill cavity: Underextrusion  conf=0.91 ---
;     bed region: (-2.55,5.20) -> (1.58,9.36)
G1 Z2.400 F600
G0 X-2.551 Y5.203 F7800
G1 Z0.400 F600
G1 X1.577 Y5.203 F200
G1 X1.577 Y6.436 F200
G1 X-2.551 Y6.436 F200
G1 X-2.551 Y7.669 F200
G1 X1.577 Y7.669 F200
G1 X1.577 Y8.902 F200
G1 X-2.551 Y8.902 F200
G1 Z2.400 F600
; --- end mill cavity ---

; --- Mill cavity: Underextrusion  conf=0.92 ---
;     bed region: (-0.20,9.20) -> (3.93,13.32)
G1 Z2.400 F600
G0 X-0.201 Y9.195 F7800
G1 Z0.400 F600
G1 X3.931 Y9.195 F200
G1 X3.931 Y10.428 F200
G1 X-0.201 Y10.428 F200
G1 X-0.201 Y11.661 F200
G1 X3.931 Y11.661 F200
G1 X3.931 Y12.894 F200
G1 X-0.201 Y12.894 F200
G1 Z2.400 F600
; --- end mill cavity ---

; --- Mill cavity: Underextrusion  conf=0.86 ---
;     bed region: (-1.47,11.10) -> (3.20,15.76)
G1 Z2.400 F600
G0 X-1.470 Y11.096 F7800
G1 Z0.400 F600
G1 X3.196 Y11.096 F200
G1 X3.196 Y12.329 F200
G1 X-1.470 Y12.329 F200
G1 X-1.470 Y13.562 F200
G1 X3.196 Y13.562 F200
G1 X3.196 Y14.795 F200
G1 X-1.470 Y14.795 F200
G1 Z2.400 F600
; --- end mill cavity ---

; --- Mill cavity: Underextrusion  conf=0.90 ---
;     bed region: (2.50,8.65) -> (6.07,12.18)
G1 Z2.400 F600
G0 X2.500 Y8.648 F7800
G1 Z0.400 F600
G1 X6.071 Y8.648 F200
G1 X6.071 Y9.881 F200
G1 X2.500 Y9.881 F200
G1 X2.500 Y11.114 F200
G1 X6.071 Y11.114 F200
G1 Z2.400 F600
; --- end mill cavity ---

; --- Mill cavity: Underextrusion  conf=0.92 ---
;     bed region: (5.08,1.35) -> (11.91,8.18)
G1 Z2.400 F600
G0 X5.084 Y1.353 F7800
G1 Z0.400 F600
G1 X11.910 Y1.353 F200
G1 X11.910 Y2.586 F200
G1 X5.084 Y2.586 F200
G1 X5.084 Y3.819 F200
G1 X11.910 Y3.819 F200
G1 X11.910 Y5.052 F200
G1 X5.084 Y5.052 F200
G1 X5.084 Y6.285 F200
G1 X11.910 Y6.285 F200
G1 X11.910 Y7.518 F200
G1 X5.084 Y7.518 F200
G1 Z2.400 F600
; --- end mill cavity ---

; --- Mill cavity: Underextrusion  conf=0.91 ---
;     bed region: (7.10,0.06) -> (13.31,6.18)
G1 Z2.400 F600
G0 X7.098 Y0.064 F7800
G1 Z0.400 F600
G1 X13.311 Y0.064 F200
G1 X13.311 Y1.297 F200
G1 X7.098 Y1.297 F200
G1 X7.098 Y2.530 F200
G1 X13.311 Y2.530 F200
G1 X13.311 Y3.763 F200
G1 X7.098 Y3.763 F200
G1 X7.098 Y4.996 F200
G1 X13.311 Y4.996 F200
G1 Z2.400 F600
; --- end mill cavity ---

; --- Mill cavity: Underextrusion  conf=0.88 ---
;     bed region: (4.07,-1.31) -> (7.04,1.59)
G1 Z2.400 F600
G0 X4.069 Y-1.310 F7800
G1 Z0.400 F600
G1 X7.042 Y-1.310 F200
G1 X7.042 Y-0.077 F200
G1 X4.069 Y-0.077 F200
G1 X4.069 Y1.156 F200
G1 X7.042 Y1.156 F200
G1 Z2.400 F600
; --- end mill cavity ---

; --- Mill cavity: Underextrusion  conf=0.86 ---
;     bed region: (-0.74,-11.30) -> (14.93,4.69)
G1 Z2.400 F600
G0 X-0.743 Y-11.304 F7800
G1 Z0.400 F600
G1 X14.932 Y-11.304 F200
G1 X14.932 Y-10.071 F200
G1 X-0.743 Y-10.071 F200
G1 X-0.743 Y-8.838 F200
G1 X14.932 Y-8.838 F200
G1 X14.932 Y-7.605 F200
G1 X-0.743 Y-7.605 F200
G1 X-0.743 Y-6.372 F200
G1 X14.932 Y-6.372 F200
G1 X14.932 Y-5.139 F200
G1 X-0.743 Y-5.139 F200
G1 X-0.743 Y-3.906 F200
G1 X14.932 Y-3.906 F200
G1 X14.932 Y-2.673 F200
G1 X-0.743 Y-2.673 F200
G1 X-0.743 Y-1.440 F200
G1 X14.932 Y-1.440 F200
G1 X14.932 Y-0.207 F200
G1 X-0.743 Y-0.207 F200
G1 X-0.743 Y1.026 F200
G1 X14.932 Y1.026 F200
G1 X14.932 Y2.259 F200
G1 X-0.743 Y2.259 F200
G1 X-0.743 Y3.492 F200
G1 X14.932 Y3.492 F200
G1 Z2.400 F600
; --- end mill cavity ---

; --- Mill cavity: Underextrusion  conf=0.86 ---
;     bed region: (7.74,-8.99) -> (14.95,-2.09)
G1 Z2.400 F600
G0 X7.740 Y-8.992 F7800
G1 Z0.400 F600
G1 X14.947 Y-8.992 F200
G1 X14.947 Y-7.759 F200
G1 X7.740 Y-7.759 F200
G1 X7.740 Y-6.526 F200
G1 X14.947 Y-6.526 F200
G1 X14.947 Y-5.293 F200
G1 X7.740 Y-5.293 F200
G1 X7.740 Y-4.060 F200
G1 X14.947 Y-4.060 F200
G1 X14.947 Y-2.827 F200
G1 X7.740 Y-2.827 F200
G1 Z2.400 F600
; --- end mill cavity ---

; --- Mill cavity: Underextrusion  conf=0.87 ---
;     bed region: (2.47,-16.62) -> (16.76,-1.96)
G1 Z2.400 F600
G0 X2.465 Y-16.622 F7800
G1 Z0.400 F600
G1 X16.755 Y-16.622 F200
G1 X16.755 Y-15.389 F200
G1 X2.465 Y-15.389 F200
G1 X2.465 Y-14.156 F200
G1 X16.755 Y-14.156 F200
G1 X16.755 Y-12.923 F200
G1 X2.465 Y-12.923 F200
G1 X2.465 Y-11.690 F200
G1 X16.755 Y-11.690 F200
G1 X16.755 Y-10.457 F200
G1 X2.465 Y-10.457 F200
G1 X2.465 Y-9.224 F200
G1 X16.755 Y-9.224 F200
G1 X16.755 Y-7.991 F200
G1 X2.465 Y-7.991 F200
G1 X2.465 Y-6.758 F200
G1 X16.755 Y-6.758 F200
G1 X16.755 Y-5.525 F200
G1 X2.465 Y-5.525 F200
G1 X2.465 Y-4.292 F200
G1 X16.755 Y-4.292 F200
G1 X16.755 Y-3.059 F200
G1 X2.465 Y-3.059 F200
G1 Z2.400 F600
; --- end mill cavity ---

; --- Mill cavity: Underextrusion  conf=0.87 ---
;     bed region: (16.39,-12.34) -> (18.26,-10.22)
G1 Z2.400 F600
G0 X16.389 Y-12.339 F7800
G1 Z0.400 F600
G1 X18.255 Y-12.339 F200
G1 X18.255 Y-11.106 F200
G1 X16.389 Y-11.106 F200
G1 Z2.400 F600
; --- end mill cavity ---

; --- Mill cavity: Underextrusion  conf=0.85 ---
;     bed region: (16.51,-15.42) -> (18.18,-13.51)
G1 Z2.400 F600
G0 X16.512 Y-15.422 F7800
G1 Z0.400 F600
G1 X18.184 Y-15.422 F200
G1 X18.184 Y-14.189 F200
G1 X16.512 Y-14.189 F200
G1 Z2.400 F600
; --- end mill cavity ---

; --- Mill cavity: Underextrusion  conf=0.87 ---
;     bed region: (11.95,-18.21) -> (14.10,-16.31)
G1 Z2.400 F600
G0 X11.950 Y-18.214 F7800
G1 Z0.400 F600
G1 X14.100 Y-18.214 F200
G1 X14.100 Y-16.981 F200
G1 X11.950 Y-16.981 F200
G1 Z2.400 F600
; --- end mill cavity ---

; --- Mill cavity: Underextrusion  conf=0.86 ---
;     bed region: (8.60,-18.23) -> (10.83,-16.30)
G1 Z2.400 F600
G0 X8.601 Y-18.230 F7800
G1 Z0.400 F600
G1 X10.825 Y-18.230 F200
G1 X10.825 Y-16.997 F200
G1 X8.601 Y-16.997 F200
G1 Z2.400 F600
; --- end mill cavity ---

; --- Mill skim: Overextrusion  conf=0.87 ---
;     bed region: (2.06,-18.29) -> (4.22,-16.39)
G1 Z2.400 F600
G0 X2.060 Y-18.288 F7800
G1 Z0.400 F600
G1 X4.225 Y-18.288 F200
G1 X4.225 Y-17.055 F200
G1 X2.060 Y-17.055 F200
G1 Z2.400 F600
; --- end mill skim ---

; --- Mill skim: Overextrusion  conf=0.87 ---
;     bed region: (-1.16,-18.29) -> (1.02,-16.22)
G1 Z2.400 F600
G0 X-1.158 Y-18.292 F7800
G1 Z0.400 F600
G1 X1.023 Y-18.292 F200
G1 X1.023 Y-17.059 F200
G1 X-1.158 Y-17.059 F200
G1 Z2.400 F600
; --- end mill skim ---

; --- Mill cavity: Underextrusion  conf=0.91 ---
;     bed region: (-6.97,-14.14) -> (6.29,-0.97)
G1 Z2.400 F600
G0 X-6.966 Y-14.139 F7800
G1 Z0.400 F600
G1 X6.285 Y-14.139 F200
G1 X6.285 Y-12.906 F200
G1 X-6.966 Y-12.906 F200
G1 X-6.966 Y-11.673 F200
G1 X6.285 Y-11.673 F200
G1 X6.285 Y-10.440 F200
G1 X-6.966 Y-10.440 F200
G1 X-6.966 Y-9.207 F200
G1 X6.285 Y-9.207 F200
G1 X6.285 Y-7.974 F200
G1 X-6.966 Y-7.974 F200
G1 X-6.966 Y-6.741 F200
G1 X6.285 Y-6.741 F200
G1 X6.285 Y-5.508 F200
G1 X-6.966 Y-5.508 F200
G1 X-6.966 Y-4.275 F200
G1 X6.285 Y-4.275 F200
G1 X6.285 Y-3.042 F200
G1 X-6.966 Y-3.042 F200
G1 X-6.966 Y-1.809 F200
G1 X6.285 Y-1.809 F200
G1 Z2.400 F600
; --- end mill cavity ---

; --- Mill cavity: Underextrusion  conf=0.93 ---
;     bed region: (-14.21,-14.89) -> (-5.23,-5.92)
G1 Z2.400 F600
G0 X-14.207 Y-14.887 F7800
G1 Z0.400 F600
G1 X-5.227 Y-14.887 F200
G1 X-5.227 Y-13.654 F200
G1 X-14.207 Y-13.654 F200
G1 X-14.207 Y-12.421 F200
G1 X-5.227 Y-12.421 F200
G1 X-5.227 Y-11.188 F200
G1 X-14.207 Y-11.188 F200
G1 X-14.207 Y-9.955 F200
G1 X-5.227 Y-9.955 F200
G1 X-5.227 Y-8.722 F200
G1 X-14.207 Y-8.722 F200
G1 X-14.207 Y-7.489 F200
G1 X-5.227 Y-7.489 F200
G1 X-5.227 Y-6.256 F200
G1 X-14.207 Y-6.256 F200
G1 Z2.400 F600
; --- end mill cavity ---

; --- Mill cavity: Underextrusion  conf=0.91 ---
;     bed region: (-15.16,-9.17) -> (-10.30,-4.27)
G1 Z2.400 F600
G0 X-15.156 Y-9.167 F7800
G1 Z0.400 F600
G1 X-10.301 Y-9.167 F200
G1 X-10.301 Y-7.934 F200
G1 X-15.156 Y-7.934 F200
G1 X-15.156 Y-6.701 F200
G1 X-10.301 Y-6.701 F200
G1 X-10.301 Y-5.468 F200
G1 X-15.156 Y-5.468 F200
G1 Z2.400 F600
; --- end mill cavity ---

; --- Mill cavity: Underextrusion  conf=0.92 ---
;     bed region: (-15.14,-5.88) -> (-2.13,7.26)
G1 Z2.400 F600
G0 X-15.141 Y-5.878 F7800
G1 Z0.400 F600
G1 X-2.133 Y-5.878 F200
G1 X-2.133 Y-4.645 F200
G1 X-15.141 Y-4.645 F200
G1 X-15.141 Y-3.412 F200
G1 X-2.133 Y-3.412 F200
G1 X-2.133 Y-2.179 F200
G1 X-15.141 Y-2.179 F200
G1 X-15.141 Y-0.946 F200
G1 X-2.133 Y-0.946 F200
G1 X-2.133 Y0.287 F200
G1 X-15.141 Y0.287 F200
G1 X-15.141 Y1.520 F200
G1 X-2.133 Y1.520 F200
G1 X-2.133 Y2.753 F200
G1 X-15.141 Y2.753 F200
G1 X-15.141 Y3.986 F200
G1 X-2.133 Y3.986 F200
G1 X-2.133 Y5.219 F200
G1 X-15.141 Y5.219 F200
G1 X-15.141 Y6.452 F200
G1 X-2.133 Y6.452 F200
G1 Z2.400 F600
; --- end mill cavity ---

; --- Mill cavity: Underextrusion  conf=0.91 ---
;     bed region: (-14.32,1.66) -> (-7.00,8.96)
G1 Z2.400 F600
G0 X-14.322 Y1.659 F7800
G1 Z0.400 F600
G1 X-7.000 Y1.659 F200
G1 X-7.000 Y2.892 F200
G1 X-14.322 Y2.892 F200
G1 X-14.322 Y4.125 F200
G1 X-7.000 Y4.125 F200
G1 X-7.000 Y5.358 F200
G1 X-14.322 Y5.358 F200
G1 X-14.322 Y6.591 F200
G1 X-7.000 Y6.591 F200
G1 X-7.000 Y7.824 F200
G1 X-14.322 Y7.824 F200
G1 Z2.400 F600
; --- end mill cavity ---

; --- Mill cavity: Underextrusion  conf=0.94 ---
;     bed region: (-16.46,4.40) -> (-5.69,15.15)
G1 Z2.400 F600
G0 X-16.460 Y4.396 F7800
G1 Z0.400 F600
G1 X-5.690 Y4.396 F200
G1 X-5.690 Y5.629 F200
G1 X-16.460 Y5.629 F200
G1 X-16.460 Y6.862 F200
G1 X-5.690 Y6.862 F200
G1 X-5.690 Y8.095 F200
G1 X-16.460 Y8.095 F200
G1 X-16.460 Y9.328 F200
G1 X-5.690 Y9.328 F200
G1 X-5.690 Y10.561 F200
G1 X-16.460 Y10.561 F200
G1 X-16.460 Y11.794 F200
G1 X-5.690 Y11.794 F200
G1 X-5.690 Y13.027 F200
G1 X-16.460 Y13.027 F200
G1 X-16.460 Y14.260 F200
G1 X-5.690 Y14.260 F200
G1 Z2.400 F600
; --- end mill cavity ---

; --- Mill cavity: Underextrusion  conf=0.91 ---
;     bed region: (-15.11,10.57) -> (-10.74,14.96)
G1 Z2.400 F600
G0 X-15.106 Y10.569 F7800
G1 Z0.400 F600
G1 X-10.735 Y10.569 F200
G1 X-10.735 Y11.802 F200
G1 X-15.106 Y11.802 F200
G1 X-15.106 Y13.035 F200
G1 X-10.735 Y13.035 F200
G1 X-10.735 Y14.268 F200
G1 X-15.106 Y14.268 F200
G1 Z2.400 F600
; --- end mill cavity ---

; --- Mill cavity: Underextrusion  conf=0.89 ---
;     bed region: (-9.49,8.21) -> (-2.43,15.02)
G1 Z2.400 F600
G0 X-9.490 Y8.206 F7800
G1 Z0.400 F600
G1 X-2.430 Y8.206 F200
G1 X-2.430 Y9.439 F200
G1 X-9.490 Y9.439 F200
G1 X-9.490 Y10.672 F200
G1 X-2.430 Y10.672 F200
G1 X-2.430 Y11.905 F200
G1 X-9.490 Y11.905 F200
G1 X-9.490 Y13.138 F200
G1 X-2.430 Y13.138 F200
G1 X-2.430 Y14.371 F200
G1 X-9.490 Y14.371 F200
G1 Z2.400 F600
; --- end mill cavity ---

; --- Mill cavity: Underextrusion  conf=0.87 ---
;     bed region: (11.60,16.40) -> (13.57,18.25)
G1 Z2.400 F600
G0 X11.602 Y16.395 F7800
G1 Z0.400 F600
G1 X13.575 Y16.395 F200
G1 X13.575 Y17.628 F200
G1 X11.602 Y17.628 F200
G1 Z2.400 F600
; --- end mill cavity ---

; --- Mill skim: Overextrusion  conf=0.87 ---
;     bed region: (16.55,4.16) -> (18.25,6.16)
G1 Z2.400 F600
G0 X16.549 Y4.159 F7800
G1 Z0.400 F600
G1 X18.251 Y4.159 F200
G1 X18.251 Y5.392 F200
G1 X16.549 Y5.392 F200
G1 Z2.400 F600
; --- end mill skim ---

; --- Mill cavity: Underextrusion  conf=0.85 ---
;     bed region: (-11.03,-18.35) -> (-8.97,-16.45)
G1 Z2.400 F600
G0 X-11.034 Y-18.352 F7800
G1 Z0.400 F600
G1 X-8.972 Y-18.352 F200
G1 X-8.972 Y-17.119 F200
G1 X-11.034 Y-17.119 F200
G1 Z2.400 F600
; --- end mill cavity ---

G1 Z2.400 F600
M5  ; spindle off after milling
; --- Phase 1 complete: all regions milled ---

; >>> RETURNING MILL, PICKING UP NOZZLE FOR DEPOSITION
M5  ; spindle off
; --- TOOL CHANGE: ceramic nozzle ---
G1 Z50.000 F600
G0 X0.000 Y0.000 F7800
M6 T0  ; pick up ceramic nozzle
; Tool T0 loaded
G92 A0

; 
; >>> PHASE 2: DEPOSIT INTO UNDEREXTRUSION CAVITIES (26)
;     Fill milled cavities with ceramic
;     Travel optimised: 460.9 -> 152.2 mm (67% saved)
; 
M14  ; purge nozzle

; --- Underextrusion repair  conf=0.85 ---
;     bed region: (-11.03,-18.35) -> (-8.97,-16.45)
G1 A0.00000 F60
G1 Z2.400 F600
G0 X-11.034 Y-18.352 F7800
G1 Z0.400 F600
G1 A0.00000 F60
G1 X-8.972 Y-18.352 A0.00088 F300
G1 X-8.972 Y-17.119 F7800
G1 X-11.034 Y-17.119 A0.00175 F300
G1 A0.00175 F60
G1 Z2.400 F600
; --- end underextrusion repair ---

; --- Underextrusion repair  conf=0.93 ---
;     bed region: (-14.21,-14.89) -> (-5.23,-5.92)
G1 A0.00175 F60
G1 Z2.400 F600
G0 X-14.207 Y-14.887 F7800
G1 Z0.400 F600
G1 A0.00175 F60
G1 X-5.227 Y-14.887 A0.00557 F300
G1 X-5.227 Y-13.654 F7800
G1 X-14.207 Y-13.654 A0.00939 F300
G1 X-14.207 Y-12.421 F7800
G1 X-5.227 Y-12.421 A0.01321 F300
G1 X-5.227 Y-11.188 F7800
G1 X-14.207 Y-11.188 A0.01704 F300
G1 X-14.207 Y-9.955 F7800
G1 X-5.227 Y-9.955 A0.02086 F300
G1 X-5.227 Y-8.722 F7800
G1 X-14.207 Y-8.722 A0.02468 F300
G1 X-14.207 Y-7.489 F7800
G1 X-5.227 Y-7.489 A0.02850 F300
G1 X-5.227 Y-6.256 F7800
G1 X-14.207 Y-6.256 A0.03232 F300
G1 A0.03232 F60
G1 Z2.400 F600
; --- end underextrusion repair ---

; --- Underextrusion repair  conf=0.91 ---
;     bed region: (-15.16,-9.17) -> (-10.30,-4.27)
G1 A0.03232 F60
G1 Z2.400 F600
G0 X-15.156 Y-9.167 F7800
G1 Z0.400 F600
G1 A0.03232 F60
G1 X-10.301 Y-9.167 A0.03438 F300
G1 X-10.301 Y-7.934 F7800
G1 X-15.156 Y-7.934 A0.03645 F300
G1 X-15.156 Y-6.701 F7800
G1 X-10.301 Y-6.701 A0.03851 F300
G1 X-10.301 Y-5.468 F7800
G1 X-15.156 Y-5.468 A0.04058 F300
G1 A0.04058 F60
G1 Z2.400 F600
; --- end underextrusion repair ---

; --- Underextrusion repair  conf=0.92 ---
;     bed region: (-15.14,-5.88) -> (-2.13,7.26)
G1 A0.04058 F60
G1 Z2.400 F600
G0 X-15.141 Y-5.878 F7800
G1 Z0.400 F600
G1 A0.04058 F60
G1 X-2.133 Y-5.878 A0.04611 F300
G1 X-2.133 Y-4.645 F7800
G1 X-15.141 Y-4.645 A0.05164 F300
G1 X-15.141 Y-3.412 F7800
G1 X-2.133 Y-3.412 A0.05718 F300
G1 X-2.133 Y-2.179 F7800
G1 X-15.141 Y-2.179 A0.06271 F300
G1 X-15.141 Y-0.946 F7800
G1 X-2.133 Y-0.946 A0.06824 F300
G1 X-2.133 Y0.287 F7800
G1 X-15.141 Y0.287 A0.07378 F300
G1 X-15.141 Y1.520 F7800
G1 X-2.133 Y1.520 A0.07931 F300
G1 X-2.133 Y2.753 F7800
G1 X-15.141 Y2.753 A0.08484 F300
G1 X-15.141 Y3.986 F7800
G1 X-2.133 Y3.986 A0.09038 F300
G1 X-2.133 Y5.219 F7800
G1 X-15.141 Y5.219 A0.09591 F300
G1 X-15.141 Y6.452 F7800
G1 X-2.133 Y6.452 A0.10144 F300
G1 A0.10144 F60
G1 Z2.400 F600
; --- end underextrusion repair ---

; --- Underextrusion repair  conf=0.91 ---
;     bed region: (-14.32,1.66) -> (-7.00,8.96)
G1 A0.10144 F60
G1 Z2.400 F600
G0 X-14.322 Y1.659 F7800
G1 Z0.400 F600
G1 A0.10144 F60
G1 X-7.000 Y1.659 A0.10456 F300
G1 X-7.000 Y2.892 F7800
G1 X-14.322 Y2.892 A0.10767 F300
G1 X-14.322 Y4.125 F7800
G1 X-7.000 Y4.125 A0.11079 F300
G1 X-7.000 Y5.358 F7800
G1 X-14.322 Y5.358 A0.11390 F300
G1 X-14.322 Y6.591 F7800
G1 X-7.000 Y6.591 A0.11702 F300
G1 X-7.000 Y7.824 F7800
G1 X-14.322 Y7.824 A0.12013 F300
G1 A0.12013 F60
G1 Z2.400 F600
; --- end underextrusion repair ---

; --- Underextrusion repair  conf=0.94 ---
;     bed region: (-16.46,4.40) -> (-5.69,15.15)
G1 A0.12013 F60
G1 Z2.400 F600
G0 X-16.460 Y4.396 F7800
G1 Z0.400 F600
G1 A0.12013 F60
G1 X-5.690 Y4.396 A0.12471 F300
G1 X-5.690 Y5.629 F7800
G1 X-16.460 Y5.629 A0.12930 F300
G1 X-16.460 Y6.862 F7800
G1 X-5.690 Y6.862 A0.13388 F300
G1 X-5.690 Y8.095 F7800
G1 X-16.460 Y8.095 A0.13846 F300
G1 X-16.460 Y9.328 F7800
G1 X-5.690 Y9.328 A0.14304 F300
G1 X-5.690 Y10.561 F7800
G1 X-16.460 Y10.561 A0.14762 F300
G1 X-16.460 Y11.794 F7800
G1 X-5.690 Y11.794 A0.15220 F300
G1 X-5.690 Y13.027 F7800
G1 X-16.460 Y13.027 A0.15678 F300
G1 X-16.460 Y14.260 F7800
G1 X-5.690 Y14.260 A0.16136 F300
G1 A0.16136 F60
G1 Z2.400 F600
; --- end underextrusion repair ---

; --- Underextrusion repair  conf=0.91 ---
;     bed region: (-15.11,10.57) -> (-10.74,14.96)
G1 A0.16136 F60
G1 Z2.400 F600
G0 X-15.106 Y10.569 F7800
G1 Z0.400 F600
G1 A0.16136 F60
G1 X-10.735 Y10.569 A0.16322 F300
G1 X-10.735 Y11.802 F7800
G1 X-15.106 Y11.802 A0.16508 F300
G1 X-15.106 Y13.035 F7800
G1 X-10.735 Y13.035 A0.16694 F300
G1 X-10.735 Y14.268 F7800
G1 X-15.106 Y14.268 A0.16880 F300
G1 A0.16880 F60
G1 Z2.400 F600
; --- end underextrusion repair ---

; --- Underextrusion repair  conf=0.89 ---
;     bed region: (-9.49,8.21) -> (-2.43,15.02)
G1 A0.16880 F60
G1 Z2.400 F600
G0 X-9.490 Y8.206 F7800
G1 Z0.400 F600
G1 A0.16880 F60
G1 X-2.430 Y8.206 A0.17180 F300
G1 X-2.430 Y9.439 F7800
G1 X-9.490 Y9.439 A0.17481 F300
G1 X-9.490 Y10.672 F7800
G1 X-2.430 Y10.672 A0.17781 F300
G1 X-2.430 Y11.905 F7800
G1 X-9.490 Y11.905 A0.18081 F300
G1 X-9.490 Y13.138 F7800
G1 X-2.430 Y13.138 A0.18382 F300
G1 X-2.430 Y14.371 F7800
G1 X-9.490 Y14.371 A0.18682 F300
G1 A0.18682 F60
G1 Z2.400 F600
; --- end underextrusion repair ---

; --- Underextrusion repair  conf=0.91 ---
;     bed region: (-2.55,5.20) -> (1.58,9.36)
G1 A0.18682 F60
G1 Z2.400 F600
G0 X-2.551 Y5.203 F7800
G1 Z0.400 F600
G1 A0.18682 F60
G1 X1.577 Y5.203 A0.18858 F300
G1 X1.577 Y6.436 F7800
G1 X-2.551 Y6.436 A0.19033 F300
G1 X-2.551 Y7.669 F7800
G1 X1.577 Y7.669 A0.19209 F300
G1 X1.577 Y8.902 F7800
G1 X-2.551 Y8.902 A0.19384 F300
G1 A0.19384 F60
G1 Z2.400 F600
; --- end underextrusion repair ---

; --- Underextrusion repair  conf=0.89 ---
;     bed region: (-0.94,3.50) -> (3.18,7.70)
G1 A0.19384 F60
G1 Z2.400 F600
G0 X-0.936 Y3.499 F7800
G1 Z0.400 F600
G1 A0.19384 F60
G1 X3.175 Y3.499 A0.19559 F300
G1 X3.175 Y4.732 F7800
G1 X-0.936 Y4.732 A0.19734 F300
G1 X-0.936 Y5.965 F7800
G1 X3.175 Y5.965 A0.19909 F300
G1 X3.175 Y7.198 F7800
G1 X-0.936 Y7.198 A0.20084 F300
G1 A0.20084 F60
G1 Z2.400 F600
; --- end underextrusion repair ---

; --- Underextrusion repair  conf=0.87 ---
;     bed region: (-5.54,0.54) -> (-1.08,4.89)
G1 A0.20084 F60
G1 Z2.400 F600
G0 X-5.536 Y0.543 F7800
G1 Z0.400 F600
G1 A0.20084 F60
G1 X-1.080 Y0.543 A0.20273 F300
G1 X-1.080 Y1.776 F7800
G1 X-5.536 Y1.776 A0.20463 F300
G1 X-5.536 Y3.009 F7800
G1 X-1.080 Y3.009 A0.20653 F300
G1 X-1.080 Y4.242 F7800
G1 X-5.536 Y4.242 A0.20842 F300
G1 A0.20842 F60
G1 Z2.400 F600
; --- end underextrusion repair ---

; --- Underextrusion repair  conf=0.88 ---
;     bed region: (4.07,-1.31) -> (7.04,1.59)
G1 A0.20842 F60
G1 Z2.400 F600
G0 X4.069 Y-1.310 F7800
G1 Z0.400 F600
G1 A0.20842 F60
G1 X7.042 Y-1.310 A0.20969 F300
G1 X7.042 Y-0.077 F7800
G1 X4.069 Y-0.077 A0.21095 F300
G1 X4.069 Y1.156 F7800
G1 X7.042 Y1.156 A0.21221 F300
G1 A0.21221 F60
G1 Z2.400 F600
; --- end underextrusion repair ---

; --- Underextrusion repair  conf=0.86 ---
;     bed region: (-0.74,-11.30) -> (14.93,4.69)
G1 A0.21221 F60
G1 Z2.400 F600
G0 X-0.743 Y-11.304 F7800
G1 Z0.400 F600
G1 A0.21221 F60
G1 X14.932 Y-11.304 A0.21888 F300
G1 X14.932 Y-10.071 F7800
G1 X-0.743 Y-10.071 A0.22555 F300
G1 X-0.743 Y-8.838 F7800
G1 X14.932 Y-8.838 A0.23222 F300
G1 X14.932 Y-7.605 F7800
G1 X-0.743 Y-7.605 A0.23889 F300
G1 X-0.743 Y-6.372 F7800
G1 X14.932 Y-6.372 A0.24555 F300
G1 X14.932 Y-5.139 F7800
G1 X-0.743 Y-5.139 A0.25222 F300
G1 X-0.743 Y-3.906 F7800
G1 X14.932 Y-3.906 A0.25889 F300
G1 X14.932 Y-2.673 F7800
G1 X-0.743 Y-2.673 A0.26556 F300
G1 X-0.743 Y-1.440 F7800
G1 X14.932 Y-1.440 A0.27222 F300
G1 X14.932 Y-0.207 F7800
G1 X-0.743 Y-0.207 A0.27889 F300
G1 X-0.743 Y1.026 F7800
G1 X14.932 Y1.026 A0.28556 F300
G1 X14.932 Y2.259 F7800
G1 X-0.743 Y2.259 A0.29223 F300
G1 X-0.743 Y3.492 F7800
G1 X14.932 Y3.492 A0.29890 F300
G1 A0.29890 F60
G1 Z2.400 F600
; --- end underextrusion repair ---

; --- Underextrusion repair  conf=0.86 ---
;     bed region: (7.74,-8.99) -> (14.95,-2.09)
G1 A0.29890 F60
G1 Z2.400 F600
G0 X7.740 Y-8.992 F7800
G1 Z0.400 F600
G1 A0.29890 F60
G1 X14.947 Y-8.992 A0.30196 F300
G1 X14.947 Y-7.759 F7800
G1 X7.740 Y-7.759 A0.30503 F300
G1 X7.740 Y-6.526 F7800
G1 X14.947 Y-6.526 A0.30809 F300
G1 X14.947 Y-5.293 F7800
G1 X7.740 Y-5.293 A0.31116 F300
G1 X7.740 Y-4.060 F7800
G1 X14.947 Y-4.060 A0.31422 F300
G1 X14.947 Y-2.827 F7800
G1 X7.740 Y-2.827 A0.31729 F300
G1 A0.31729 F60
G1 Z2.400 F600
; --- end underextrusion repair ---

; --- Underextrusion repair  conf=0.87 ---
;     bed region: (2.47,-16.62) -> (16.76,-1.96)
G1 A0.31729 F60
G1 Z2.400 F600
G0 X2.465 Y-16.622 F7800
G1 Z0.400 F600
G1 A0.31729 F60
G1 X16.755 Y-16.622 A0.32337 F300
G1 X16.755 Y-15.389 F7800
G1 X2.465 Y-15.389 A0.32945 F300
G1 X2.465 Y-14.156 F7800
G1 X16.755 Y-14.156 A0.33553 F300
G1 X16.755 Y-12.923 F7800
G1 X2.465 Y-12.923 A0.34161 F300
G1 X2.465 Y-11.690 F7800
G1 X16.755 Y-11.690 A0.34768 F300
G1 X16.755 Y-10.457 F7800
G1 X2.465 Y-10.457 A0.35376 F300
G1 X2.465 Y-9.224 F7800
G1 X16.755 Y-9.224 A0.35984 F300
G1 X16.755 Y-7.991 F7800
G1 X2.465 Y-7.991 A0.36592 F300
G1 X2.465 Y-6.758 F7800
G1 X16.755 Y-6.758 A0.37200 F300
G1 X16.755 Y-5.525 F7800
G1 X2.465 Y-5.525 A0.37808 F300
G1 X2.465 Y-4.292 F7800
G1 X16.755 Y-4.292 A0.38416 F300
G1 X16.755 Y-3.059 F7800
G1 X2.465 Y-3.059 A0.39024 F300
G1 A0.39024 F60
G1 Z2.400 F600
; --- end underextrusion repair ---

; --- Underextrusion repair  conf=0.87 ---
;     bed region: (16.39,-12.34) -> (18.26,-10.22)
G1 A0.39024 F60
G1 Z2.400 F600
G0 X16.389 Y-12.339 F7800
G1 Z0.400 F600
G1 A0.39024 F60
G1 X18.255 Y-12.339 A0.39103 F300
G1 X18.255 Y-11.106 F7800
G1 X16.389 Y-11.106 A0.39182 F300
G1 A0.39182 F60
G1 Z2.400 F600
; --- end underextrusion repair ---

; --- Underextrusion repair  conf=0.85 ---
;     bed region: (16.51,-15.42) -> (18.18,-13.51)
G1 A0.39182 F60
G1 Z2.400 F600
G0 X16.512 Y-15.422 F7800
G1 Z0.400 F600
G1 A0.39182 F60
G1 X18.184 Y-15.422 A0.39253 F300
G1 X18.184 Y-14.189 F7800
G1 X16.512 Y-14.189 A0.39325 F300
G1 A0.39325 F60
G1 Z2.400 F600
; --- end underextrusion repair ---

; --- Underextrusion repair  conf=0.87 ---
;     bed region: (11.95,-18.21) -> (14.10,-16.31)
G1 A0.39325 F60
G1 Z2.400 F600
G0 X11.950 Y-18.214 F7800
G1 Z0.400 F600
G1 A0.39325 F60
G1 X14.100 Y-18.214 A0.39416 F300
G1 X14.100 Y-16.981 F7800
G1 X11.950 Y-16.981 A0.39508 F300
G1 A0.39508 F60
G1 Z2.400 F600
; --- end underextrusion repair ---

; --- Underextrusion repair  conf=0.86 ---
;     bed region: (8.60,-18.23) -> (10.83,-16.30)
G1 A0.39508 F60
G1 Z2.400 F600
G0 X8.601 Y-18.230 F7800
G1 Z0.400 F600
G1 A0.39508 F60
G1 X10.825 Y-18.230 A0.39602 F300
G1 X10.825 Y-16.997 F7800
G1 X8.601 Y-16.997 A0.39697 F300
G1 A0.39697 F60
G1 Z2.400 F600
; --- end underextrusion repair ---

; --- Underextrusion repair  conf=0.91 ---
;     bed region: (-6.97,-14.14) -> (6.29,-0.97)
G1 A0.39697 F60
G1 Z2.400 F600
G0 X-6.966 Y-14.139 F7800
G1 Z0.400 F600
G1 A0.39697 F60
G1 X6.285 Y-14.139 A0.40260 F300
G1 X6.285 Y-12.906 F7800
G1 X-6.966 Y-12.906 A0.40824 F300
G1 X-6.966 Y-11.673 F7800
G1 X6.285 Y-11.673 A0.41388 F300
G1 X6.285 Y-10.440 F7800
G1 X-6.966 Y-10.440 A0.41951 F300
G1 X-6.966 Y-9.207 F7800
G1 X6.285 Y-9.207 A0.42515 F300
G1 X6.285 Y-7.974 F7800
G1 X-6.966 Y-7.974 A0.43079 F300
G1 X-6.966 Y-6.741 F7800
G1 X6.285 Y-6.741 A0.43642 F300
G1 X6.285 Y-5.508 F7800
G1 X-6.966 Y-5.508 A0.44206 F300
G1 X-6.966 Y-4.275 F7800
G1 X6.285 Y-4.275 A0.44770 F300
G1 X6.285 Y-3.042 F7800
G1 X-6.966 Y-3.042 A0.45334 F300
G1 X-6.966 Y-1.809 F7800
G1 X6.285 Y-1.809 A0.45897 F300
G1 A0.45897 F60
G1 Z2.400 F600
; --- end underextrusion repair ---

; --- Underextrusion repair  conf=0.91 ---
;     bed region: (7.10,0.06) -> (13.31,6.18)
G1 A0.45897 F60
G1 Z2.400 F600
G0 X7.098 Y0.064 F7800
G1 Z0.400 F600
G1 A0.45897 F60
G1 X13.311 Y0.064 A0.46162 F300
G1 X13.311 Y1.297 F7800
G1 X7.098 Y1.297 A0.46426 F300
G1 X7.098 Y2.530 F7800
G1 X13.311 Y2.530 A0.46690 F300
G1 X13.311 Y3.763 F7800
G1 X7.098 Y3.763 A0.46954 F300
G1 X7.098 Y4.996 F7800
G1 X13.311 Y4.996 A0.47219 F300
G1 A0.47219 F60
G1 Z2.400 F600
; --- end underextrusion repair ---

; --- Underextrusion repair  conf=0.92 ---
;     bed region: (5.08,1.35) -> (11.91,8.18)
G1 A0.47219 F60
G1 Z2.400 F600
G0 X5.084 Y1.353 F7800
G1 Z0.400 F600
G1 A0.47219 F60
G1 X11.910 Y1.353 A0.47509 F300
G1 X11.910 Y2.586 F7800
G1 X5.084 Y2.586 A0.47799 F300
G1 X5.084 Y3.819 F7800
G1 X11.910 Y3.819 A0.48090 F300
G1 X11.910 Y5.052 F7800
G1 X5.084 Y5.052 A0.48380 F300
G1 X5.084 Y6.285 F7800
G1 X11.910 Y6.285 A0.48671 F300
G1 X11.910 Y7.518 F7800
G1 X5.084 Y7.518 A0.48961 F300
G1 A0.48961 F60
G1 Z2.400 F600
; --- end underextrusion repair ---

; --- Underextrusion repair  conf=0.90 ---
;     bed region: (2.50,8.65) -> (6.07,12.18)
G1 A0.48961 F60
G1 Z2.400 F600
G0 X2.500 Y8.648 F7800
G1 Z0.400 F600
G1 A0.48961 F60
G1 X6.071 Y8.648 A0.49113 F300
G1 X6.071 Y9.881 F7800
G1 X2.500 Y9.881 A0.49265 F300
G1 X2.500 Y11.114 F7800
G1 X6.071 Y11.114 A0.49417 F300
G1 A0.49417 F60
G1 Z2.400 F600
; --- end underextrusion repair ---

; --- Underextrusion repair  conf=0.92 ---
;     bed region: (-0.20,9.20) -> (3.93,13.32)
G1 A0.49417 F60
G1 Z2.400 F600
G0 X-0.201 Y9.195 F7800
G1 Z0.400 F600
G1 A0.49417 F60
G1 X3.931 Y9.195 A0.49592 F300
G1 X3.931 Y10.428 F7800
G1 X-0.201 Y10.428 A0.49768 F300
G1 X-0.201 Y11.661 F7800
G1 X3.931 Y11.661 A0.49944 F300
G1 X3.931 Y12.894 F7800
G1 X-0.201 Y12.894 A0.50120 F300
G1 A0.50120 F60
G1 Z2.400 F600
; --- end underextrusion repair ---

; --- Underextrusion repair  conf=0.86 ---
;     bed region: (-1.47,11.10) -> (3.20,15.76)
G1 A0.50120 F60
G1 Z2.400 F600
G0 X-1.470 Y11.096 F7800
G1 Z0.400 F600
G1 A0.50120 F60
G1 X3.196 Y11.096 A0.50318 F300
G1 X3.196 Y12.329 F7800
G1 X-1.470 Y12.329 A0.50517 F300
G1 X-1.470 Y13.562 F7800
G1 X3.196 Y13.562 A0.50715 F300
G1 X3.196 Y14.795 F7800
G1 X-1.470 Y14.795 A0.50914 F300
G1 A0.50914 F60
G1 Z2.400 F600
; --- end underextrusion repair ---

; --- Underextrusion repair  conf=0.87 ---
;     bed region: (11.60,16.40) -> (13.57,18.25)
G1 A0.50914 F60
G1 Z2.400 F600
G0 X11.602 Y16.395 F7800
G1 Z0.400 F600
G1 A0.50914 F60
G1 X13.575 Y16.395 A0.50998 F300
G1 X13.575 Y17.628 F7800
G1 X11.602 Y17.628 A0.51081 F300
G1 A0.51081 F60
G1 Z2.400 F600
; --- end underextrusion repair ---

; --- Repair complete ---
G0 Z5.400 F7800
G0 X0.000 Y0.000 F7800
M2  ; program end
