; ============================================================
; ADAPTIVE REPAIR G-CODE
; Layer 0   Z=0.400 mm
; Defects: 9
; ============================================================

G21          ; millimetres
G90          ; absolute positioning
G58          ; work coordinate system
G92 A0

; 
; >>> PHASE 2: UNDEREXTRUSION REPAIRS (9)
;     Re-deposit material into voids on levelled surface
;     Travel optimised: 120.3 -> 80.2 mm (33% saved)
; 
M14  ; purge nozzle

; --- Underextrusion repair  conf=0.95 ---
;     bed region: (1.18,-0.18) -> (6.70,5.52)
G1 A0.00000 F60
G1 Z1.400 F600
G0 X1.180 Y-0.185 F7800
G1 Z0.400 F600
G1 A0.00000 F60
G0 X1.180 Y-0.185 F7800
G1 X6.695 Y-0.185 A0.00235 F300
G0 X6.695 Y1.048 F7800
G1 X1.180 Y1.048 A0.00469 F300
G0 X1.180 Y2.281 F7800
G1 X6.695 Y2.281 A0.00704 F300
G0 X6.695 Y3.514 F7800
G1 X1.180 Y3.514 A0.00938 F300
G0 X1.180 Y4.747 F7800
G1 X6.695 Y4.747 A0.01173 F300
G1 A0.01173 F60
; --- end underextrusion repair ---

; --- Underextrusion repair  conf=0.95 ---
;     bed region: (-1.11,-10.55) -> (7.19,-2.25)
G1 A0.01173 F60
G1 Z1.400 F600
G0 X-1.113 Y-10.545 F7800
G1 Z0.400 F600
G1 A0.01173 F60
G0 X-1.113 Y-10.545 F7800
G1 X7.185 Y-10.545 A0.01526 F300
G0 X7.185 Y-9.312 F7800
G1 X-1.113 Y-9.312 A0.01879 F300
G0 X-1.113 Y-8.079 F7800
G1 X7.185 Y-8.079 A0.02232 F300
G0 X7.185 Y-6.846 F7800
G1 X-1.113 Y-6.846 A0.02585 F300
G0 X-1.113 Y-5.613 F7800
G1 X7.185 Y-5.613 A0.02938 F300
G0 X7.185 Y-4.380 F7800
G1 X-1.113 Y-4.380 A0.03291 F300
G0 X-1.113 Y-3.147 F7800
G1 X7.185 Y-3.147 A0.03644 F300
G1 A0.03644 F60
; --- end underextrusion repair ---

; --- Underextrusion repair  conf=0.94 ---
;     bed region: (-8.79,-11.68) -> (2.04,-0.57)
G1 A0.03644 F60
G1 Z1.400 F600
G0 X-8.795 Y-11.683 F7800
G1 Z0.400 F600
G1 A0.03644 F60
G0 X-8.795 Y-11.683 F7800
G1 X2.040 Y-11.683 A0.04105 F300
G0 X2.040 Y-10.450 F7800
G1 X-8.795 Y-10.450 A0.04566 F300
G0 X-8.795 Y-9.216 F7800
G1 X2.040 Y-9.216 A0.05026 F300
G0 X2.040 Y-7.983 F7800
G1 X-8.795 Y-7.983 A0.05487 F300
G0 X-8.795 Y-6.750 F7800
G1 X2.040 Y-6.750 A0.05948 F300
G0 X2.040 Y-5.517 F7800
G1 X-8.795 Y-5.517 A0.06409 F300
G0 X-8.795 Y-4.284 F7800
G1 X2.040 Y-4.284 A0.06870 F300
G0 X2.040 Y-3.051 F7800
G1 X-8.795 Y-3.051 A0.07331 F300
G0 X-8.795 Y-1.818 F7800
G1 X2.040 Y-1.818 A0.07792 F300
G0 X2.040 Y-0.585 F7800
G1 X-8.795 Y-0.585 A0.08253 F300
G1 A0.08253 F60
; --- end underextrusion repair ---

; --- Underextrusion repair  conf=0.94 ---
;     bed region: (-10.16,-9.83) -> (1.15,1.52)
G1 A0.08253 F60
G1 Z1.400 F600
G0 X-10.160 Y-9.828 F7800
G1 Z0.400 F600
G1 A0.08253 F60
G0 X-10.160 Y-9.828 F7800
G1 X1.147 Y-9.828 A0.08734 F300
G0 X1.147 Y-8.595 F7800
G1 X-10.160 Y-8.595 A0.09215 F300
G0 X-10.160 Y-7.361 F7800
G1 X1.147 Y-7.361 A0.09696 F300
G0 X1.147 Y-6.128 F7800
G1 X-10.160 Y-6.128 A0.10177 F300
G0 X-10.160 Y-4.895 F7800
G1 X1.147 Y-4.895 A0.10658 F300
G0 X1.147 Y-3.662 F7800
G1 X-10.160 Y-3.662 A0.11139 F300
G0 X-10.160 Y-2.429 F7800
G1 X1.147 Y-2.429 A0.11620 F300
G0 X1.147 Y-1.196 F7800
G1 X-10.160 Y-1.196 A0.12101 F300
G0 X-10.160 Y0.037 F7800
G1 X1.147 Y0.037 A0.12582 F300
G0 X1.147 Y1.270 F7800
G1 X-10.160 Y1.270 A0.13063 F300
G1 A0.13063 F60
; --- end underextrusion repair ---

; --- Underextrusion repair  conf=0.88 ---
;     bed region: (-13.43,-6.35) -> (-5.29,2.00)
G1 A0.13063 F60
G1 Z1.400 F600
G0 X-13.433 Y-6.345 F7800
G1 Z0.400 F600
G1 A0.13063 F60
G0 X-13.433 Y-6.345 F7800
G1 X-5.293 Y-6.345 A0.13409 F300
G0 X-5.293 Y-5.112 F7800
G1 X-13.433 Y-5.112 A0.13755 F300
G0 X-13.433 Y-3.879 F7800
G1 X-5.293 Y-3.879 A0.14102 F300
G0 X-5.293 Y-2.646 F7800
G1 X-13.433 Y-2.646 A0.14448 F300
G0 X-13.433 Y-1.413 F7800
G1 X-5.293 Y-1.413 A0.14794 F300
G0 X-5.293 Y-0.180 F7800
G1 X-13.433 Y-0.180 A0.15140 F300
G0 X-13.433 Y1.053 F7800
G1 X-5.293 Y1.053 A0.15487 F300
G1 A0.15487 F60
; --- end underextrusion repair ---

; --- Underextrusion repair  conf=0.93 ---
;     bed region: (-13.80,-3.34) -> (-6.90,3.37)
G1 A0.15487 F60
G1 Z1.400 F600
G0 X-13.800 Y-3.335 F7800
G1 Z0.400 F600
G1 A0.15487 F60
G0 X-13.800 Y-3.335 F7800
G1 X-6.903 Y-3.335 A0.15780 F300
G0 X-6.903 Y-2.102 F7800
G1 X-13.800 Y-2.102 A0.16073 F300
G0 X-13.800 Y-0.869 F7800
G1 X-6.903 Y-0.869 A0.16367 F300
G0 X-6.903 Y0.364 F7800
G1 X-13.800 Y0.364 A0.16660 F300
G0 X-13.800 Y1.597 F7800
G1 X-6.903 Y1.597 A0.16954 F300
G0 X-6.903 Y2.830 F7800
G1 X-13.800 Y2.830 A0.17247 F300
G1 A0.17247 F60
; --- end underextrusion repair ---

; --- Underextrusion repair  conf=0.86 ---
;     bed region: (-17.72,2.39) -> (-15.90,4.58)
G1 A0.17247 F60
G1 Z1.400 F600
G0 X-17.720 Y2.388 F7800
G1 Z0.400 F600
G1 A0.17247 F60
G0 X-17.720 Y2.388 F7800
G1 X-15.898 Y2.388 A0.17325 F300
G0 X-15.898 Y3.621 F7800
G1 X-17.720 Y3.621 A0.17402 F300
G1 A0.17402 F60
; --- end underextrusion repair ---

; --- Underextrusion repair  conf=0.90 ---
;     bed region: (-7.10,15.09) -> (-4.89,17.11)
G1 A0.17402 F60
G1 Z1.400 F600
G0 X-7.098 Y15.093 F7800
G1 Z0.400 F600
G1 A0.17402 F60
G0 X-7.098 Y15.093 F7800
G1 X-4.890 Y15.093 A0.17496 F300
G0 X-4.890 Y16.326 F7800
G1 X-7.098 Y16.326 A0.17590 F300
G1 A0.17590 F60
; --- end underextrusion repair ---

; --- Underextrusion repair  conf=0.88 ---
;     bed region: (5.89,-8.41) -> (12.80,-1.58)
G1 A0.17590 F60
G1 Z1.400 F600
G0 X5.888 Y-8.410 F7800
G1 Z0.400 F600
G1 A0.17590 F60
G0 X5.888 Y-8.410 F7800
G1 X12.803 Y-8.410 A0.17884 F300
G0 X12.803 Y-7.177 F7800
G1 X5.888 Y-7.177 A0.18178 F300
G0 X5.888 Y-5.944 F7800
G1 X12.803 Y-5.944 A0.18472 F300
G0 X12.803 Y-4.711 F7800
G1 X5.888 Y-4.711 A0.18767 F300
G0 X5.888 Y-3.478 F7800
G1 X12.803 Y-3.478 A0.19061 F300
G0 X12.803 Y-2.245 F7800
G1 X5.888 Y-2.245 A0.19355 F300
G1 A0.19355 F60
; --- end underextrusion repair ---

; --- Repair complete ---
G0 Z5.400 F7800
G0 X0.000 Y0.000 F7800
M2  ; program end
