; ============================================================
; ADAPTIVE REPAIR G-CODE
; Layer 0   Z=0.400 mm
; Defects: 8
; ============================================================

G21          ; millimetres
G90          ; absolute positioning
G58          ; work coordinate system
G92 A0

; 
; >>> PICKING UP MILLING TOOL
; --- TOOL CHANGE: milling tool ---
G1 Z50.000 F600
G0 X0.000 Y0.000 F7800
M6 T1  ; pick up milling tool
; Tool T1 loaded
M3 S1000  ; spindle on

; 
; >>> PHASE 1: MILL ALL BOUNDING BOXES (8)
;     Overextrusion  : 0 regions (skim excess)
;     Underextrusion : 8 regions (cut clean cavity)
;     Travel optimised: 94.1 -> 52.5 mm (44% saved)
; 
; --- Mill cavity: Underextrusion  conf=0.91 ---
;     bed region: (1.00,-0.25) -> (6.76,5.68)
G1 Z2.400 F600
G0 X0.998 Y-0.248 F7800
G1 Z0.400 F600
G1 X6.763 Y-0.248 F200
G1 X6.763 Y0.985 F200
G1 X0.998 Y0.985 F200
G1 X0.998 Y2.218 F200
G1 X6.763 Y2.218 F200
G1 X6.763 Y3.451 F200
G1 X0.998 Y3.451 F200
G1 X0.998 Y4.684 F200
G1 X6.763 Y4.684 F200
G1 Z2.400 F600
; --- end mill cavity ---

; --- Mill cavity: Underextrusion  conf=0.89 ---
;     bed region: (7.05,5.89) -> (11.30,10.15)
G1 Z2.400 F600
G0 X7.046 Y5.888 F7800
G1 Z0.400 F600
G1 X11.304 Y5.888 F200
G1 X11.304 Y7.121 F200
G1 X7.046 Y7.121 F200
G1 X7.046 Y8.354 F200
G1 X11.304 Y8.354 F200
G1 X11.304 Y9.587 F200
G1 X7.046 Y9.587 F200
G1 Z2.400 F600
; --- end mill cavity ---

; --- Mill cavity: Underextrusion  conf=0.92 ---
;     bed region: (5.81,-8.55) -> (13.08,-1.20)
G1 Z2.400 F600
G0 X5.812 Y-8.554 F7800
G1 Z0.400 F600
G1 X13.080 Y-8.554 F200
G1 X13.080 Y-7.321 F200
G1 X5.812 Y-7.321 F200
G1 X5.812 Y-6.088 F200
G1 X13.080 Y-6.088 F200
G1 X13.080 Y-4.855 F200
G1 X5.812 Y-4.855 F200
G1 X5.812 Y-3.622 F200
G1 X13.080 Y-3.622 F200
G1 X13.080 Y-2.389 F200
G1 X5.812 Y-2.389 F200
G1 Z2.400 F600
; --- end mill cavity ---

; --- Mill cavity: Underextrusion  conf=0.92 ---
;     bed region: (-1.38,-10.67) -> (7.05,-2.34)
G1 Z2.400 F600
G0 X-1.384 Y-10.668 F7800
G1 Z0.400 F600
G1 X7.046 Y-10.668 F200
G1 X7.046 Y-9.435 F200
G1 X-1.384 Y-9.435 F200
G1 X-1.384 Y-8.202 F200
G1 X7.046 Y-8.202 F200
G1 X7.046 Y-6.969 F200
G1 X-1.384 Y-6.969 F200
G1 X-1.384 Y-5.736 F200
G1 X7.046 Y-5.736 F200
G1 X7.046 Y-4.503 F200
G1 X-1.384 Y-4.503 F200
G1 X-1.384 Y-3.270 F200
G1 X7.046 Y-3.270 F200
G1 Z2.400 F600
; --- end mill cavity ---

; --- Mill cavity: Underextrusion  conf=0.88 ---
;     bed region: (-1.85,-14.71) -> (6.44,-6.05)
G1 Z2.400 F600
G0 X-1.850 Y-14.708 F7800
G1 Z0.400 F600
G1 X6.442 Y-14.708 F200
G1 X6.442 Y-13.475 F200
G1 X-1.850 Y-13.475 F200
G1 X-1.850 Y-12.242 F200
G1 X6.442 Y-12.242 F200
G1 X6.442 Y-11.009 F200
G1 X-1.850 Y-11.009 F200
G1 X-1.850 Y-9.776 F200
G1 X6.442 Y-9.776 F200
G1 X6.442 Y-8.543 F200
G1 X-1.850 Y-8.543 F200
G1 X-1.850 Y-7.310 F200
G1 X6.442 Y-7.310 F200
G1 X6.442 Y-6.077 F200
G1 X-1.850 Y-6.077 F200
G1 Z2.400 F600
; --- end mill cavity ---

; --- Mill cavity: Underextrusion  conf=0.93 ---
;     bed region: (-8.95,-11.89) -> (2.24,-0.76)
G1 Z2.400 F600
G0 X-8.947 Y-11.892 F7800
G1 Z0.400 F600
G1 X2.244 Y-11.892 F200
G1 X2.244 Y-10.659 F200
G1 X-8.947 Y-10.659 F200
G1 X-8.947 Y-9.426 F200
G1 X2.244 Y-9.426 F200
G1 X2.244 Y-8.193 F200
G1 X-8.947 Y-8.193 F200
G1 X-8.947 Y-6.960 F200
G1 X2.244 Y-6.960 F200
G1 X2.244 Y-5.727 F200
G1 X-8.947 Y-5.727 F200
G1 X-8.947 Y-4.494 F200
G1 X2.244 Y-4.494 F200
G1 X2.244 Y-3.261 F200
G1 X-8.947 Y-3.261 F200
G1 X-8.947 Y-2.028 F200
G1 X2.244 Y-2.028 F200
G1 X2.244 Y-0.795 F200
G1 X-8.947 Y-0.795 F200
G1 Z2.400 F600
; --- end mill cavity ---

; --- Mill cavity: Underextrusion  conf=0.91 ---
;     bed region: (-13.46,-6.47) -> (-5.03,1.92)
G1 Z2.400 F600
G0 X-13.465 Y-6.470 F7800
G1 Z0.400 F600
G1 X-5.030 Y-6.470 F200
G1 X-5.030 Y-5.237 F200
G1 X-13.465 Y-5.237 F200
G1 X-13.465 Y-4.004 F200
G1 X-5.030 Y-4.004 F200
G1 X-5.030 Y-2.771 F200
G1 X-13.465 Y-2.771 F200
G1 X-13.465 Y-1.538 F200
G1 X-5.030 Y-1.538 F200
G1 X-5.030 Y-0.305 F200
G1 X-13.465 Y-0.305 F200
G1 X-13.465 Y0.928 F200
G1 X-5.030 Y0.928 F200
G1 Z2.400 F600
; --- end mill cavity ---

; --- Mill cavity: Underextrusion  conf=0.91 ---
;     bed region: (-13.91,-3.41) -> (-7.03,3.41)
G1 Z2.400 F600
G0 X-13.914 Y-3.411 F7800
G1 Z0.400 F600
G1 X-7.034 Y-3.411 F200
G1 X-7.034 Y-2.178 F200
G1 X-13.914 Y-2.178 F200
G1 X-13.914 Y-0.945 F200
G1 X-7.034 Y-0.945 F200
G1 X-7.034 Y0.288 F200
G1 X-13.914 Y0.288 F200
G1 X-13.914 Y1.521 F200
G1 X-7.034 Y1.521 F200
G1 X-7.034 Y2.754 F200
G1 X-13.914 Y2.754 F200
G1 Z2.400 F600
; --- end mill cavity ---

G1 Z2.400 F600
M5  ; spindle off after milling
; --- Phase 1 complete: all regions milled ---

; >>> RETURNING MILL, PICKING UP NOZZLE FOR DEPOSITION
M5  ; spindle off
; --- TOOL CHANGE: ceramic nozzle ---
G1 Z50.000 F600
G0 X0.000 Y0.000 F7800
M6 T0  ; pick up ceramic nozzle
; Tool T0 loaded
G92 A0

; 
; >>> PHASE 2: DEPOSIT INTO UNDEREXTRUSION CAVITIES (8)
;     Fill milled cavities with ceramic
;     Travel optimised: 96.4 -> 45.8 mm (53% saved)
; 
M14  ; purge nozzle

; --- Underextrusion repair  conf=0.91 ---
;     bed region: (-13.91,-3.41) -> (-7.03,3.41)
G1 A0.00000 F60
G1 Z2.400 F600
G0 X-13.914 Y-3.411 F7800
G1 Z0.400 F600
G1 A0.00000 F60
G1 X-7.034 Y-3.411 A0.00293 F300
G1 X-7.034 Y-2.178 F7800
G1 X-13.914 Y-2.178 A0.00585 F300
G1 X-13.914 Y-0.945 F7800
G1 X-7.034 Y-0.945 A0.00878 F300
G1 X-7.034 Y0.288 F7800
G1 X-13.914 Y0.288 A0.01171 F300
G1 X-13.914 Y1.521 F7800
G1 X-7.034 Y1.521 A0.01463 F300
G1 X-7.034 Y2.754 F7800
G1 X-13.914 Y2.754 A0.01756 F300
G1 A0.01756 F60
G1 Z2.400 F600
; --- end underextrusion repair ---

; --- Underextrusion repair  conf=0.91 ---
;     bed region: (-13.46,-6.47) -> (-5.03,1.92)
G1 A0.01756 F60
G1 Z2.400 F600
G0 X-13.465 Y-6.470 F7800
G1 Z0.400 F600
G1 A0.01756 F60
G1 X-5.030 Y-6.470 A0.02115 F300
G1 X-5.030 Y-5.237 F7800
G1 X-13.465 Y-5.237 A0.02473 F300
G1 X-13.465 Y-4.004 F7800
G1 X-5.030 Y-4.004 A0.02832 F300
G1 X-5.030 Y-2.771 F7800
G1 X-13.465 Y-2.771 A0.03191 F300
G1 X-13.465 Y-1.538 F7800
G1 X-5.030 Y-1.538 A0.03550 F300
G1 X-5.030 Y-0.305 F7800
G1 X-13.465 Y-0.305 A0.03909 F300
G1 X-13.465 Y0.928 F7800
G1 X-5.030 Y0.928 A0.04267 F300
G1 A0.04267 F60
G1 Z2.400 F600
; --- end underextrusion repair ---

; --- Underextrusion repair  conf=0.93 ---
;     bed region: (-8.95,-11.89) -> (2.24,-0.76)
G1 A0.04267 F60
G1 Z2.400 F600
G0 X-8.947 Y-11.892 F7800
G1 Z0.400 F600
G1 A0.04267 F60
G1 X2.244 Y-11.892 A0.04743 F300
G1 X2.244 Y-10.659 F7800
G1 X-8.947 Y-10.659 A0.05219 F300
G1 X-8.947 Y-9.426 F7800
G1 X2.244 Y-9.426 A0.05695 F300
G1 X2.244 Y-8.193 F7800
G1 X-8.947 Y-8.193 A0.06172 F300
G1 X-8.947 Y-6.960 F7800
G1 X2.244 Y-6.960 A0.06648 F300
G1 X2.244 Y-5.727 F7800
G1 X-8.947 Y-5.727 A0.07124 F300
G1 X-8.947 Y-4.494 F7800
G1 X2.244 Y-4.494 A0.07600 F300
G1 X2.244 Y-3.261 F7800
G1 X-8.947 Y-3.261 A0.08076 F300
G1 X-8.947 Y-2.028 F7800
G1 X2.244 Y-2.028 A0.08552 F300
G1 X2.244 Y-0.795 F7800
G1 X-8.947 Y-0.795 A0.09028 F300
G1 A0.09028 F60
G1 Z2.400 F600
; --- end underextrusion repair ---

; --- Underextrusion repair  conf=0.92 ---
;     bed region: (-1.38,-10.67) -> (7.05,-2.34)
G1 A0.09028 F60
G1 Z2.400 F600
G0 X-1.384 Y-10.668 F7800
G1 Z0.400 F600
G1 A0.09028 F60
G1 X7.046 Y-10.668 A0.09386 F300
G1 X7.046 Y-9.435 F7800
G1 X-1.384 Y-9.435 A0.09745 F300
G1 X-1.384 Y-8.202 F7800
G1 X7.046 Y-8.202 A0.10104 F300
G1 X7.046 Y-6.969 F7800
G1 X-1.384 Y-6.969 A0.10462 F300
G1 X-1.384 Y-5.736 F7800
G1 X7.046 Y-5.736 A0.10821 F300
G1 X7.046 Y-4.503 F7800
G1 X-1.384 Y-4.503 A0.11179 F300
G1 X-1.384 Y-3.270 F7800
G1 X7.046 Y-3.270 A0.11538 F300
G1 A0.11538 F60
G1 Z2.400 F600
; --- end underextrusion repair ---

; --- Underextrusion repair  conf=0.88 ---
;     bed region: (-1.85,-14.71) -> (6.44,-6.05)
G1 A0.11538 F60
G1 Z2.400 F600
G0 X-1.850 Y-14.708 F7800
G1 Z0.400 F600
G1 A0.11538 F60
G1 X6.442 Y-14.708 A0.11891 F300
G1 X6.442 Y-13.475 F7800
G1 X-1.850 Y-13.475 A0.12243 F300
G1 X-1.850 Y-12.242 F7800
G1 X6.442 Y-12.242 A0.12596 F300
G1 X6.442 Y-11.009 F7800
G1 X-1.850 Y-11.009 A0.12949 F300
G1 X-1.850 Y-9.776 F7800
G1 X6.442 Y-9.776 A0.13301 F300
G1 X6.442 Y-8.543 F7800
G1 X-1.850 Y-8.543 A0.13654 F300
G1 X-1.850 Y-7.310 F7800
G1 X6.442 Y-7.310 A0.14007 F300
G1 X6.442 Y-6.077 F7800
G1 X-1.850 Y-6.077 A0.14360 F300
G1 A0.14360 F60
G1 Z2.400 F600
; --- end underextrusion repair ---

; --- Underextrusion repair  conf=0.92 ---
;     bed region: (5.81,-8.55) -> (13.08,-1.20)
G1 A0.14360 F60
G1 Z2.400 F600
G0 X5.812 Y-8.554 F7800
G1 Z0.400 F600
G1 A0.14360 F60
G1 X13.080 Y-8.554 A0.14669 F300
G1 X13.080 Y-7.321 F7800
G1 X5.812 Y-7.321 A0.14978 F300
G1 X5.812 Y-6.088 F7800
G1 X13.080 Y-6.088 A0.15287 F300
G1 X13.080 Y-4.855 F7800
G1 X5.812 Y-4.855 A0.15596 F300
G1 X5.812 Y-3.622 F7800
G1 X13.080 Y-3.622 A0.15906 F300
G1 X13.080 Y-2.389 F7800
G1 X5.812 Y-2.389 A0.16215 F300
G1 A0.16215 F60
G1 Z2.400 F600
; --- end underextrusion repair ---

; --- Underextrusion repair  conf=0.91 ---
;     bed region: (1.00,-0.25) -> (6.76,5.68)
G1 A0.16215 F60
G1 Z2.400 F600
G0 X0.998 Y-0.248 F7800
G1 Z0.400 F600
G1 A0.16215 F60
G1 X6.763 Y-0.248 A0.16460 F300
G1 X6.763 Y0.985 F7800
G1 X0.998 Y0.985 A0.16705 F300
G1 X0.998 Y2.218 F7800
G1 X6.763 Y2.218 A0.16950 F300
G1 X6.763 Y3.451 F7800
G1 X0.998 Y3.451 A0.17196 F300
G1 X0.998 Y4.684 F7800
G1 X6.763 Y4.684 A0.17441 F300
G1 A0.17441 F60
G1 Z2.400 F600
; --- end underextrusion repair ---

; --- Underextrusion repair  conf=0.89 ---
;     bed region: (7.05,5.89) -> (11.30,10.15)
G1 A0.17441 F60
G1 Z2.400 F600
G0 X7.046 Y5.888 F7800
G1 Z0.400 F600
G1 A0.17441 F60
G1 X11.304 Y5.888 A0.17622 F300
G1 X11.304 Y7.121 F7800
G1 X7.046 Y7.121 A0.17803 F300
G1 X7.046 Y8.354 F7800
G1 X11.304 Y8.354 A0.17984 F300
G1 X11.304 Y9.587 F7800
G1 X7.046 Y9.587 A0.18165 F300
G1 A0.18165 F60
G1 Z2.400 F600
; --- end underextrusion repair ---

; --- Repair complete ---
G0 Z5.400 F7800
G0 X0.000 Y0.000 F7800
M2  ; program end
