; ============================================================
; ADAPTIVE REPAIR G-CODE
; Layer 0   Z=0.400 mm
; Defects: 4
; ============================================================

G21          ; millimetres
G90          ; absolute positioning
G58          ; work coordinate system
G92 A0

; 
; >>> PICKING UP MILLING TOOL
; --- TOOL CHANGE: milling tool ---
G1 Z50.000 F600
G0 X0.000 Y0.000 F7800
M6 T1  ; pick up milling tool
; Tool T1 loaded
M3 S1000  ; spindle on

; 
; >>> PHASE 1: MILL ALL BOUNDING BOXES (4)
;     Overextrusion  : 0 regions (skim excess)
;     Underextrusion : 4 regions (cut clean cavity)
;     Travel optimised: 27.8 -> 19.5 mm (30% saved)
; 
; --- Mill cavity: Underextrusion  conf=0.93 ---
;     bed region: (1.62,-15.45) -> (15.97,-1.50)
;     mill Z=0.000 mm (pocket floor)
G1 Z2.400 F600
G0 X1.618 Y-15.445 F7800
G1 Z0.000 F600
G1 X15.970 Y-15.445 F200
G1 X15.970 Y-14.212 F200
G1 X1.618 Y-14.212 F200
G1 X1.618 Y-12.979 F200
G1 X15.970 Y-12.979 F200
G1 X15.970 Y-11.746 F200
G1 X1.618 Y-11.746 F200
G1 X1.618 Y-10.513 F200
G1 X15.970 Y-10.513 F200
G1 X15.970 Y-9.280 F200
G1 X1.618 Y-9.280 F200
G1 X1.618 Y-8.047 F200
G1 X15.970 Y-8.047 F200
G1 X15.970 Y-6.814 F200
G1 X1.618 Y-6.814 F200
G1 X1.618 Y-5.581 F200
G1 X15.970 Y-5.581 F200
G1 X15.970 Y-4.348 F200
G1 X1.618 Y-4.348 F200
G1 X1.618 Y-3.115 F200
G1 X15.970 Y-3.115 F200
G1 X15.970 Y-1.882 F200
G1 X1.618 Y-1.882 F200
G1 Z2.400 F600
; --- end mill cavity ---

; --- Mill cavity: Underextrusion  conf=0.90 ---
;     bed region: (4.35,-15.55) -> (16.72,-3.67)
;     mill Z=0.000 mm (pocket floor)
G1 Z2.400 F600
G0 X4.348 Y-15.550 F7800
G1 Z0.000 F600
G1 X16.723 Y-15.550 F200
G1 X16.723 Y-14.317 F200
G1 X4.348 Y-14.317 F200
G1 X4.348 Y-13.084 F200
G1 X16.723 Y-13.084 F200
G1 X16.723 Y-11.851 F200
G1 X4.348 Y-11.851 F200
G1 X4.348 Y-10.618 F200
G1 X16.723 Y-10.618 F200
G1 X16.723 Y-9.385 F200
G1 X4.348 Y-9.385 F200
G1 X4.348 Y-8.152 F200
G1 X16.723 Y-8.152 F200
G1 X16.723 Y-6.919 F200
G1 X4.348 Y-6.919 F200
G1 X4.348 Y-5.686 F200
G1 X16.723 Y-5.686 F200
G1 X16.723 Y-4.453 F200
G1 X4.348 Y-4.453 F200
G1 Z2.400 F600
; --- end mill cavity ---

; --- Mill cavity: Underextrusion  conf=0.94 ---
;     bed region: (7.62,-15.66) -> (18.09,-4.89)
;     mill Z=0.000 mm (pocket floor)
G1 Z2.400 F600
G0 X7.620 Y-15.655 F7800
G1 Z0.000 F600
G1 X18.088 Y-15.655 F200
G1 X18.088 Y-14.422 F200
G1 X7.620 Y-14.422 F200
G1 X7.620 Y-13.189 F200
G1 X18.088 Y-13.189 F200
G1 X18.088 Y-11.956 F200
G1 X7.620 Y-11.956 F200
G1 X7.620 Y-10.723 F200
G1 X18.088 Y-10.723 F200
G1 X18.088 Y-9.490 F200
G1 X7.620 Y-9.490 F200
G1 X7.620 Y-8.257 F200
G1 X18.088 Y-8.257 F200
G1 X18.088 Y-7.024 F200
G1 X7.620 Y-7.024 F200
G1 X7.620 Y-5.791 F200
G1 X18.088 Y-5.791 F200
G1 Z2.400 F600
; --- end mill cavity ---

; --- Mill cavity: Underextrusion  conf=0.93 ---
;     bed region: (10.46,-15.90) -> (16.30,-10.11)
;     mill Z=0.000 mm (pocket floor)
G1 Z2.400 F600
G0 X10.455 Y-15.900 F7800
G1 Z0.000 F600
G1 X16.303 Y-15.900 F200
G1 X16.303 Y-14.667 F200
G1 X10.455 Y-14.667 F200
G1 X10.455 Y-13.434 F200
G1 X16.303 Y-13.434 F200
G1 X16.303 Y-12.201 F200
G1 X10.455 Y-12.201 F200
G1 X10.455 Y-10.968 F200
G1 X16.303 Y-10.968 F200
G1 Z2.400 F600
; --- end mill cavity ---

G1 Z2.400 F600
M5  ; spindle off after milling
; --- DUST EXTRACTION (placeholder) ---
;     TODO: set DUST_EXTRACT_COMMAND in config.py
;     Ceramic chips must be cleared before deposition
; --- Phase 1 complete: all regions milled ---

; >>> RETURNING MILL, PICKING UP NOZZLE FOR DEPOSITION
M5  ; spindle off
; --- TOOL CHANGE: ceramic nozzle ---
G1 Z50.000 F600
G0 X0.000 Y0.000 F7800
M6 T0  ; pick up ceramic nozzle
; Tool T0 loaded
G92 A0

; 
; >>> PHASE 2: DEPOSIT INTO UNDEREXTRUSION CAVITIES (4)
;     Fill milled cavities with ceramic
;     Travel optimised: 14.1 -> 7.3 mm (48% saved)
; 
M14  ; purge nozzle

; --- Underextrusion repair  conf=0.93 ---
;     bed region: (10.46,-15.90) -> (16.30,-10.11)
G1 A0.00000 F60
G1 Z2.400 F600
G0 X10.455 Y-15.900 F7800
G1 Z0.400 F600
G1 A0.00000 F60
G1 X16.303 Y-15.900 A0.00249 F300
G1 X16.303 Y-14.667 F7800
G1 X10.455 Y-14.667 A0.00497 F300
G1 X10.455 Y-13.434 F7800
G1 X16.303 Y-13.434 A0.00746 F300
G1 X16.303 Y-12.201 F7800
G1 X10.455 Y-12.201 A0.00995 F300
G1 X10.455 Y-10.968 F7800
G1 X16.303 Y-10.968 A0.01244 F300
G1 A0.01244 F60
G1 Z2.400 F600
; --- end underextrusion repair ---

; --- Underextrusion repair  conf=0.94 ---
;     bed region: (7.62,-15.66) -> (18.09,-4.89)
G1 A0.01244 F60
G1 Z2.400 F600
G0 X7.620 Y-15.655 F7800
G1 Z0.400 F600
G1 A0.01244 F60
G1 X18.088 Y-15.655 A0.01689 F300
G1 X18.088 Y-14.422 F7800
G1 X7.620 Y-14.422 A0.02134 F300
G1 X7.620 Y-13.189 F7800
G1 X18.088 Y-13.189 A0.02580 F300
G1 X18.088 Y-11.956 F7800
G1 X7.620 Y-11.956 A0.03025 F300
G1 X7.620 Y-10.723 F7800
G1 X18.088 Y-10.723 A0.03470 F300
G1 X18.088 Y-9.490 F7800
G1 X7.620 Y-9.490 A0.03915 F300
G1 X7.620 Y-8.257 F7800
G1 X18.088 Y-8.257 A0.04361 F300
G1 X18.088 Y-7.024 F7800
G1 X7.620 Y-7.024 A0.04806 F300
G1 X7.620 Y-5.791 F7800
G1 X18.088 Y-5.791 A0.05251 F300
G1 A0.05251 F60
G1 Z2.400 F600
; --- end underextrusion repair ---

; --- Underextrusion repair  conf=0.90 ---
;     bed region: (4.35,-15.55) -> (16.72,-3.67)
G1 A0.05251 F60
G1 Z2.400 F600
G0 X4.348 Y-15.550 F7800
G1 Z0.400 F600
G1 A0.05251 F60
G1 X16.723 Y-15.550 A0.05778 F300
G1 X16.723 Y-14.317 F7800
G1 X4.348 Y-14.317 A0.06304 F300
G1 X4.348 Y-13.084 F7800
G1 X16.723 Y-13.084 A0.06830 F300
G1 X16.723 Y-11.851 F7800
G1 X4.348 Y-11.851 A0.07357 F300
G1 X4.348 Y-10.618 F7800
G1 X16.723 Y-10.618 A0.07883 F300
G1 X16.723 Y-9.385 F7800
G1 X4.348 Y-9.385 A0.08410 F300
G1 X4.348 Y-8.152 F7800
G1 X16.723 Y-8.152 A0.08936 F300
G1 X16.723 Y-6.919 F7800
G1 X4.348 Y-6.919 A0.09462 F300
G1 X4.348 Y-5.686 F7800
G1 X16.723 Y-5.686 A0.09989 F300
G1 X16.723 Y-4.453 F7800
G1 X4.348 Y-4.453 A0.10515 F300
G1 A0.10515 F60
G1 Z2.400 F600
; --- end underextrusion repair ---

; --- Underextrusion repair  conf=0.93 ---
;     bed region: (1.62,-15.45) -> (15.97,-1.50)
G1 A0.10515 F60
G1 Z2.400 F600
G0 X1.618 Y-15.445 F7800
G1 Z0.400 F600
G1 A0.10515 F60
G1 X15.970 Y-15.445 A0.11126 F300
G1 X15.970 Y-14.212 F7800
G1 X1.618 Y-14.212 A0.11736 F300
G1 X1.618 Y-12.979 F7800
G1 X15.970 Y-12.979 A0.12347 F300
G1 X15.970 Y-11.746 F7800
G1 X1.618 Y-11.746 A0.12957 F300
G1 X1.618 Y-10.513 F7800
G1 X15.970 Y-10.513 A0.13568 F300
G1 X15.970 Y-9.280 F7800
G1 X1.618 Y-9.280 A0.14178 F300
G1 X1.618 Y-8.047 F7800
G1 X15.970 Y-8.047 A0.14789 F300
G1 X15.970 Y-6.814 F7800
G1 X1.618 Y-6.814 A0.15400 F300
G1 X1.618 Y-5.581 F7800
G1 X15.970 Y-5.581 A0.16010 F300
G1 X15.970 Y-4.348 F7800
G1 X1.618 Y-4.348 A0.16621 F300
G1 X1.618 Y-3.115 F7800
G1 X15.970 Y-3.115 A0.17231 F300
G1 X15.970 Y-1.882 F7800
G1 X1.618 Y-1.882 A0.17842 F300
G1 A0.17842 F60
G1 Z2.400 F600
; --- end underextrusion repair ---


; --- IR DRYING ---
M20 #620=60 #621=0.4  ; IR dry 60s at Z=0.4

; --- CAMERA SCAN (re-inspection) ---
M311  ; trigger camera scan

; --- Repair complete ---
G0 Z5.400 F7800
G0 X0.000 Y0.000 F7800
M2  ; program end
