; ============================================================
; ADAPTIVE REPAIR G-CODE
; Layer 0   Z=0.400 mm
; Defects: 7
; ============================================================

G21          ; millimetres
G90          ; absolute positioning
G58          ; work coordinate system
G92 A0

; 
; >>> PHASE 2: UNDEREXTRUSION REPAIRS (7)
;     Re-deposit material into voids on levelled surface
;     Travel optimised: 119.0 -> 87.1 mm (27% saved)
; 
M14  ; purge nozzle

; --- Underextrusion repair  conf=0.95 ---
;     bed region: (-8.48,-14.15) -> (5.03,-0.57)
G1 A0.00000 F60
G1 Z1.400 F600
G0 X-8.480 Y-14.150 F7800
G1 Z0.400 F600
G1 A0.00000 F60
G0 X-8.480 Y-14.150 F7800
G1 X5.033 Y-14.150 A0.00575 F300
G0 X5.033 Y-12.917 F7800
G1 X-8.480 Y-12.917 A0.01150 F300
G0 X-8.480 Y-11.684 F7800
G1 X5.033 Y-11.684 A0.01724 F300
G0 X5.033 Y-10.451 F7800
G1 X-8.480 Y-10.451 A0.02299 F300
G0 X-8.480 Y-9.218 F7800
G1 X5.033 Y-9.218 A0.02874 F300
G0 X5.033 Y-7.985 F7800
G1 X-8.480 Y-7.985 A0.03449 F300
G0 X-8.480 Y-6.752 F7800
G1 X5.033 Y-6.752 A0.04024 F300
G0 X5.033 Y-5.519 F7800
G1 X-8.480 Y-5.519 A0.04598 F300
G0 X-8.480 Y-4.286 F7800
G1 X5.033 Y-4.286 A0.05173 F300
G0 X5.033 Y-3.053 F7800
G1 X-8.480 Y-3.053 A0.05748 F300
G0 X-8.480 Y-1.820 F7800
G1 X5.033 Y-1.820 A0.06323 F300
G0 X5.033 Y-0.587 F7800
G1 X-8.480 Y-0.587 A0.06898 F300
G1 A0.06898 F60
; --- end underextrusion repair ---

; --- Underextrusion repair  conf=0.95 ---
;     bed region: (-14.41,-4.12) -> (-7.59,2.69)
G1 A0.06898 F60
G1 Z1.400 F600
G0 X-14.413 Y-4.123 F7800
G1 Z0.400 F600
G1 A0.06898 F60
G0 X-14.413 Y-4.123 F7800
G1 X-7.585 Y-4.123 A0.07188 F300
G0 X-7.585 Y-2.890 F7800
G1 X-14.413 Y-2.890 A0.07478 F300
G0 X-14.413 Y-1.657 F7800
G1 X-7.585 Y-1.657 A0.07769 F300
G0 X-7.585 Y-0.424 F7800
G1 X-14.413 Y-0.424 A0.08059 F300
G0 X-14.413 Y0.809 F7800
G1 X-7.585 Y0.809 A0.08350 F300
G0 X-7.585 Y2.042 F7800
G1 X-14.413 Y2.042 A0.08640 F300
G1 A0.08640 F60
; --- end underextrusion repair ---

; --- Underextrusion repair  conf=0.96 ---
;     bed region: (-14.68,1.99) -> (-6.89,9.78)
G1 A0.08640 F60
G1 Z1.400 F600
G0 X-14.675 Y1.985 F7800
G1 Z0.400 F600
G1 A0.08640 F60
G0 X-14.675 Y1.985 F7800
G1 X-6.885 Y1.985 A0.08972 F300
G0 X-6.885 Y3.218 F7800
G1 X-14.675 Y3.218 A0.09303 F300
G0 X-14.675 Y4.451 F7800
G1 X-6.885 Y4.451 A0.09634 F300
G0 X-6.885 Y5.684 F7800
G1 X-14.675 Y5.684 A0.09966 F300
G0 X-14.675 Y6.917 F7800
G1 X-6.885 Y6.917 A0.10297 F300
G0 X-6.885 Y8.150 F7800
G1 X-14.675 Y8.150 A0.10628 F300
G0 X-14.675 Y9.383 F7800
G1 X-6.885 Y9.383 A0.10960 F300
G1 A0.10960 F60
; --- end underextrusion repair ---

; --- Underextrusion repair  conf=0.93 ---
;     bed region: (6.24,8.60) -> (9.92,12.42)
G1 A0.10960 F60
G1 Z1.400 F600
G0 X6.238 Y8.600 F7800
G1 Z0.400 F600
G1 A0.10960 F60
G0 X6.238 Y8.600 F7800
G1 X9.915 Y8.600 A0.11116 F300
G0 X9.915 Y9.833 F7800
G1 X6.238 Y9.833 A0.11273 F300
G0 X6.238 Y11.066 F7800
G1 X9.915 Y11.066 A0.11429 F300
G0 X9.915 Y12.299 F7800
G1 X6.238 Y12.299 A0.11586 F300
G1 A0.11586 F60
; --- end underextrusion repair ---

; --- Underextrusion repair  conf=0.85 ---
;     bed region: (4.26,16.49) -> (6.05,18.14)
G1 A0.11586 F60
G1 Z1.400 F600
G0 X4.260 Y16.493 F7800
G1 Z0.400 F600
G1 A0.11586 F60
G0 X4.260 Y16.493 F7800
G1 X6.048 Y16.493 A0.11662 F300
G0 X6.048 Y17.726 F7800
G1 X4.260 Y17.726 A0.11738 F300
G1 A0.11738 F60
; --- end underextrusion repair ---

; --- Underextrusion repair  conf=0.86 ---
;     bed region: (16.56,-10.00) -> (18.23,-8.06)
G1 A0.11738 F60
G1 Z1.400 F600
G0 X16.562 Y-10.003 F7800
G1 Z0.400 F600
G1 A0.11738 F60
G0 X16.562 Y-10.003 F7800
G1 X18.228 Y-10.003 A0.11808 F300
G0 X18.228 Y-8.770 F7800
G1 X16.562 Y-8.770 A0.11879 F300
G1 A0.11879 F60
; --- end underextrusion repair ---

; --- Underextrusion repair  conf=0.93 ---
;     bed region: (9.91,-14.66) -> (15.31,-9.25)
G1 A0.11879 F60
G1 Z1.400 F600
G0 X9.913 Y-14.658 F7800
G1 Z0.400 F600
G1 A0.11879 F60
G0 X9.913 Y-14.658 F7800
G1 X15.305 Y-14.658 A0.12109 F300
G0 X15.305 Y-13.425 F7800
G1 X9.913 Y-13.425 A0.12338 F300
G0 X9.913 Y-12.191 F7800
G1 X15.305 Y-12.191 A0.12567 F300
G0 X15.305 Y-10.958 F7800
G1 X9.913 Y-10.958 A0.12797 F300
G0 X9.913 Y-9.725 F7800
G1 X15.305 Y-9.725 A0.13026 F300
G1 A0.13026 F60
; --- end underextrusion repair ---

; --- Repair complete ---
G0 Z5.400 F7800
G0 X0.000 Y0.000 F7800
M2  ; program end
