; ============================================================
; ADAPTIVE REPAIR G-CODE
; Layer 0   Z=0.400 mm
; Defects: 12
; ============================================================

G21          ; millimetres
G90          ; absolute positioning
G58          ; work coordinate system
G92 A0

; 
; >>> PICKING UP MILLING TOOL
; --- TOOL CHANGE: milling tool ---
G1 Z50.000 F600
G0 X0.000 Y0.000 F7800
M6 T1  ; pick up milling tool
; Tool T1 loaded
M3 S1000  ; spindle on

; 
; >>> PHASE 1: MILL ALL BOUNDING BOXES (12)
;     Overextrusion  : 0 regions (skim excess)
;     Underextrusion : 12 regions (cut clean cavity)
;     Travel optimised: 168.9 -> 105.1 mm (38% saved)
; 
; --- Mill cavity: Underextrusion  conf=0.90 ---
;     bed region: (-8.72,-14.30) -> (5.06,-0.64)
G1 Z2.400 F600
G0 X-8.722 Y-14.300 F7800
G1 Z0.400 F600
G1 X5.061 Y-14.300 F200
G1 X5.061 Y-13.067 F200
G1 X-8.722 Y-13.067 F200
G1 X-8.722 Y-11.834 F200
G1 X5.061 Y-11.834 F200
G1 X5.061 Y-10.601 F200
G1 X-8.722 Y-10.601 F200
G1 X-8.722 Y-9.368 F200
G1 X5.061 Y-9.368 F200
G1 X5.061 Y-8.135 F200
G1 X-8.722 Y-8.135 F200
G1 X-8.722 Y-6.902 F200
G1 X5.061 Y-6.902 F200
G1 X5.061 Y-5.669 F200
G1 X-8.722 Y-5.669 F200
G1 X-8.722 Y-4.436 F200
G1 X5.061 Y-4.436 F200
G1 X5.061 Y-3.203 F200
G1 X-8.722 Y-3.203 F200
G1 X-8.722 Y-1.970 F200
G1 X5.061 Y-1.970 F200
G1 X5.061 Y-0.737 F200
G1 X-8.722 Y-0.737 F200
G1 Z2.400 F600
; --- end mill cavity ---

; --- Mill cavity: Underextrusion  conf=0.90 ---
;     bed region: (0.40,-14.72) -> (5.84,-9.21)
G1 Z2.400 F600
G0 X0.396 Y-14.717 F7800
G1 Z0.400 F600
G1 X5.840 Y-14.717 F200
G1 X5.840 Y-13.484 F200
G1 X0.396 Y-13.484 F200
G1 X0.396 Y-12.251 F200
G1 X5.840 Y-12.251 F200
G1 X5.840 Y-11.018 F200
G1 X0.396 Y-11.018 F200
G1 X0.396 Y-9.785 F200
G1 X5.840 Y-9.785 F200
G1 Z2.400 F600
; --- end mill cavity ---

; --- Mill cavity: Underextrusion  conf=0.87 ---
;     bed region: (3.34,-18.24) -> (5.39,-16.43)
G1 Z2.400 F600
G0 X3.336 Y-18.237 F7800
G1 Z0.400 F600
G1 X5.390 Y-18.237 F200
G1 X5.390 Y-17.004 F200
G1 X3.336 Y-17.004 F200
G1 Z2.400 F600
; --- end mill cavity ---

; --- Mill cavity: Underextrusion  conf=0.86 ---
;     bed region: (0.22,-18.25) -> (2.22,-16.54)
G1 Z2.400 F600
G0 X0.224 Y-18.248 F7800
G1 Z0.400 F600
G1 X2.222 Y-18.248 F200
G1 X2.222 Y-17.015 F200
G1 X0.224 Y-17.015 F200
G1 Z2.400 F600
; --- end mill cavity ---

; --- Mill cavity: Underextrusion  conf=0.86 ---
;     bed region: (9.78,-18.21) -> (11.70,-16.49)
G1 Z2.400 F600
G0 X9.779 Y-18.211 F7800
G1 Z0.400 F600
G1 X11.701 Y-18.211 F200
G1 X11.701 Y-16.978 F200
G1 X9.779 Y-16.978 F200
G1 Z2.400 F600
; --- end mill cavity ---

; --- Mill cavity: Underextrusion  conf=0.92 ---
;     bed region: (9.89,-14.69) -> (15.36,-9.28)
G1 Z2.400 F600
G0 X9.888 Y-14.694 F7800
G1 Z0.400 F600
G1 X15.363 Y-14.694 F200
G1 X15.363 Y-13.461 F200
G1 X9.888 Y-13.461 F200
G1 X9.888 Y-12.228 F200
G1 X15.363 Y-12.228 F200
G1 X15.363 Y-10.995 F200
G1 X9.888 Y-10.995 F200
G1 X9.888 Y-9.762 F200
G1 X15.363 Y-9.762 F200
G1 Z2.400 F600
; --- end mill cavity ---

; --- Mill cavity: Underextrusion  conf=0.89 ---
;     bed region: (4.14,-14.10) -> (12.46,-5.65)
G1 Z2.400 F600
G0 X4.135 Y-14.101 F7800
G1 Z0.400 F600
G1 X12.463 Y-14.101 F200
G1 X12.463 Y-12.868 F200
G1 X4.135 Y-12.868 F200
G1 X4.135 Y-11.635 F200
G1 X12.463 Y-11.635 F200
G1 X12.463 Y-10.402 F200
G1 X4.135 Y-10.402 F200
G1 X4.135 Y-9.169 F200
G1 X12.463 Y-9.169 F200
G1 X12.463 Y-7.936 F200
G1 X4.135 Y-7.936 F200
G1 X4.135 Y-6.703 F200
G1 X12.463 Y-6.703 F200
G1 Z2.400 F600
; --- end mill cavity ---

; --- Mill cavity: Underextrusion  conf=0.86 ---
;     bed region: (16.57,-10.00) -> (18.25,-8.08)
G1 Z2.400 F600
G0 X16.568 Y-9.998 F7800
G1 Z0.400 F600
G1 X18.250 Y-9.998 F200
G1 X18.250 Y-8.765 F200
G1 X16.568 Y-8.765 F200
G1 Z2.400 F600
; --- end mill cavity ---

; --- Mill cavity: Underextrusion  conf=0.92 ---
;     bed region: (6.18,8.58) -> (9.93,12.50)
G1 Z2.400 F600
G0 X6.178 Y8.584 F7800
G1 Z0.400 F600
G1 X9.931 Y8.584 F200
G1 X9.931 Y9.817 F200
G1 X6.178 Y9.817 F200
G1 X6.178 Y11.050 F200
G1 X9.931 Y11.050 F200
G1 X9.931 Y12.283 F200
G1 X6.178 Y12.283 F200
G1 Z2.400 F600
; --- end mill cavity ---

; --- Mill cavity: Underextrusion  conf=0.93 ---
;     bed region: (-14.67,2.00) -> (-6.82,9.92)
G1 Z2.400 F600
G0 X-14.666 Y2.000 F7800
G1 Z0.400 F600
G1 X-6.816 Y2.000 F200
G1 X-6.816 Y3.233 F200
G1 X-14.666 Y3.233 F200
G1 X-14.666 Y4.466 F200
G1 X-6.816 Y4.466 F200
G1 X-6.816 Y5.699 F200
G1 X-14.666 Y5.699 F200
G1 X-14.666 Y6.932 F200
G1 X-6.816 Y6.932 F200
G1 X-6.816 Y8.165 F200
G1 X-14.666 Y8.165 F200
G1 X-14.666 Y9.398 F200
G1 X-6.816 Y9.398 F200
G1 Z2.400 F600
; --- end mill cavity ---

; --- Mill cavity: Underextrusion  conf=0.93 ---
;     bed region: (-14.42,-4.15) -> (-7.57,2.73)
G1 Z2.400 F600
G0 X-14.423 Y-4.151 F7800
G1 Z0.400 F600
G1 X-7.569 Y-4.151 F200
G1 X-7.569 Y-2.918 F200
G1 X-14.423 Y-2.918 F200
G1 X-14.423 Y-1.685 F200
G1 X-7.569 Y-1.685 F200
G1 X-7.569 Y-0.452 F200
G1 X-14.423 Y-0.452 F200
G1 X-14.423 Y0.781 F200
G1 X-7.569 Y0.781 F200
G1 X-7.569 Y2.014 F200
G1 X-14.423 Y2.014 F200
G1 Z2.400 F600
; --- end mill cavity ---

; --- Mill cavity: Underextrusion  conf=0.91 ---
;     bed region: (-13.87,-9.96) -> (-5.16,-1.44)
G1 Z2.400 F600
G0 X-13.868 Y-9.956 F7800
G1 Z0.400 F600
G1 X-5.162 Y-9.956 F200
G1 X-5.162 Y-8.723 F200
G1 X-13.868 Y-8.723 F200
G1 X-13.868 Y-7.490 F200
G1 X-5.162 Y-7.490 F200
G1 X-5.162 Y-6.257 F200
G1 X-13.868 Y-6.257 F200
G1 X-13.868 Y-5.024 F200
G1 X-5.162 Y-5.024 F200
G1 X-5.162 Y-3.791 F200
G1 X-13.868 Y-3.791 F200
G1 X-13.868 Y-2.558 F200
G1 X-5.162 Y-2.558 F200
G1 Z2.400 F600
; --- end mill cavity ---

G1 Z2.400 F600
M5  ; spindle off after milling
; --- Phase 1 complete: all regions milled ---

; >>> RETURNING MILL, PICKING UP NOZZLE FOR DEPOSITION
M5  ; spindle off
; --- TOOL CHANGE: ceramic nozzle ---
G1 Z50.000 F600
G0 X0.000 Y0.000 F7800
M6 T0  ; pick up ceramic nozzle
; Tool T0 loaded
G92 A0

; 
; >>> PHASE 2: DEPOSIT INTO UNDEREXTRUSION CAVITIES (12)
;     Fill milled cavities with ceramic
;     Travel optimised: 163.1 -> 94.2 mm (42% saved)
; 
M14  ; purge nozzle

; --- Underextrusion repair  conf=0.91 ---
;     bed region: (-13.87,-9.96) -> (-5.16,-1.44)
G1 A0.00000 F60
G1 Z2.400 F600
G0 X-13.868 Y-9.956 F7800
G1 Z0.400 F600
G1 A0.00000 F60
G1 X-5.162 Y-9.956 A0.00370 F300
G1 X-5.162 Y-8.723 F7800
G1 X-13.868 Y-8.723 A0.00741 F300
G1 X-13.868 Y-7.490 F7800
G1 X-5.162 Y-7.490 A0.01111 F300
G1 X-5.162 Y-6.257 F7800
G1 X-13.868 Y-6.257 A0.01481 F300
G1 X-13.868 Y-5.024 F7800
G1 X-5.162 Y-5.024 A0.01852 F300
G1 X-5.162 Y-3.791 F7800
G1 X-13.868 Y-3.791 A0.02222 F300
G1 X-13.868 Y-2.558 F7800
G1 X-5.162 Y-2.558 A0.02592 F300
G1 A0.02592 F60
G1 Z2.400 F600
; --- end underextrusion repair ---

; --- Underextrusion repair  conf=0.93 ---
;     bed region: (-14.42,-4.15) -> (-7.57,2.73)
G1 A0.02592 F60
G1 Z2.400 F600
G0 X-14.423 Y-4.151 F7800
G1 Z0.400 F600
G1 A0.02592 F60
G1 X-7.569 Y-4.151 A0.02884 F300
G1 X-7.569 Y-2.918 F7800
G1 X-14.423 Y-2.918 A0.03175 F300
G1 X-14.423 Y-1.685 F7800
G1 X-7.569 Y-1.685 A0.03467 F300
G1 X-7.569 Y-0.452 F7800
G1 X-14.423 Y-0.452 A0.03758 F300
G1 X-14.423 Y0.781 F7800
G1 X-7.569 Y0.781 A0.04050 F300
G1 X-7.569 Y2.014 F7800
G1 X-14.423 Y2.014 A0.04342 F300
G1 A0.04342 F60
G1 Z2.400 F600
; --- end underextrusion repair ---

; --- Underextrusion repair  conf=0.93 ---
;     bed region: (-14.67,2.00) -> (-6.82,9.92)
G1 A0.04342 F60
G1 Z2.400 F600
G0 X-14.666 Y2.000 F7800
G1 Z0.400 F600
G1 A0.04342 F60
G1 X-6.816 Y2.000 A0.04676 F300
G1 X-6.816 Y3.233 F7800
G1 X-14.666 Y3.233 A0.05009 F300
G1 X-14.666 Y4.466 F7800
G1 X-6.816 Y4.466 A0.05343 F300
G1 X-6.816 Y5.699 F7800
G1 X-14.666 Y5.699 A0.05677 F300
G1 X-14.666 Y6.932 F7800
G1 X-6.816 Y6.932 A0.06011 F300
G1 X-6.816 Y8.165 F7800
G1 X-14.666 Y8.165 A0.06345 F300
G1 X-14.666 Y9.398 F7800
G1 X-6.816 Y9.398 A0.06679 F300
G1 A0.06679 F60
G1 Z2.400 F600
; --- end underextrusion repair ---

; --- Underextrusion repair  conf=0.90 ---
;     bed region: (-8.72,-14.30) -> (5.06,-0.64)
G1 A0.06679 F60
G1 Z2.400 F600
G0 X-8.722 Y-14.300 F7800
G1 Z0.400 F600
G1 A0.06679 F60
G1 X5.061 Y-14.300 A0.07265 F300
G1 X5.061 Y-13.067 F7800
G1 X-8.722 Y-13.067 A0.07852 F300
G1 X-8.722 Y-11.834 F7800
G1 X5.061 Y-11.834 A0.08438 F300
G1 X5.061 Y-10.601 F7800
G1 X-8.722 Y-10.601 A0.09024 F300
G1 X-8.722 Y-9.368 F7800
G1 X5.061 Y-9.368 A0.09610 F300
G1 X5.061 Y-8.135 F7800
G1 X-8.722 Y-8.135 A0.10197 F300
G1 X-8.722 Y-6.902 F7800
G1 X5.061 Y-6.902 A0.10783 F300
G1 X5.061 Y-5.669 F7800
G1 X-8.722 Y-5.669 A0.11369 F300
G1 X-8.722 Y-4.436 F7800
G1 X5.061 Y-4.436 A0.11955 F300
G1 X5.061 Y-3.203 F7800
G1 X-8.722 Y-3.203 A0.12542 F300
G1 X-8.722 Y-1.970 F7800
G1 X5.061 Y-1.970 A0.13128 F300
G1 X5.061 Y-0.737 F7800
G1 X-8.722 Y-0.737 A0.13714 F300
G1 A0.13714 F60
G1 Z2.400 F600
; --- end underextrusion repair ---

; --- Underextrusion repair  conf=0.90 ---
;     bed region: (0.40,-14.72) -> (5.84,-9.21)
G1 A0.13714 F60
G1 Z2.400 F600
G0 X0.396 Y-14.717 F7800
G1 Z0.400 F600
G1 A0.13714 F60
G1 X5.840 Y-14.717 A0.13946 F300
G1 X5.840 Y-13.484 F7800
G1 X0.396 Y-13.484 A0.14178 F300
G1 X0.396 Y-12.251 F7800
G1 X5.840 Y-12.251 A0.14409 F300
G1 X5.840 Y-11.018 F7800
G1 X0.396 Y-11.018 A0.14641 F300
G1 X0.396 Y-9.785 F7800
G1 X5.840 Y-9.785 A0.14872 F300
G1 A0.14872 F60
G1 Z2.400 F600
; --- end underextrusion repair ---

; --- Underextrusion repair  conf=0.87 ---
;     bed region: (3.34,-18.24) -> (5.39,-16.43)
G1 A0.14872 F60
G1 Z2.400 F600
G0 X3.336 Y-18.237 F7800
G1 Z0.400 F600
G1 A0.14872 F60
G1 X5.390 Y-18.237 A0.14960 F300
G1 X5.390 Y-17.004 F7800
G1 X3.336 Y-17.004 A0.15047 F300
G1 A0.15047 F60
G1 Z2.400 F600
; --- end underextrusion repair ---

; --- Underextrusion repair  conf=0.86 ---
;     bed region: (0.22,-18.25) -> (2.22,-16.54)
G1 A0.15047 F60
G1 Z2.400 F600
G0 X0.224 Y-18.248 F7800
G1 Z0.400 F600
G1 A0.15047 F60
G1 X2.222 Y-18.248 A0.15132 F300
G1 X2.222 Y-17.015 F7800
G1 X0.224 Y-17.015 A0.15217 F300
G1 A0.15217 F60
G1 Z2.400 F600
; --- end underextrusion repair ---

; --- Underextrusion repair  conf=0.86 ---
;     bed region: (9.78,-18.21) -> (11.70,-16.49)
G1 A0.15217 F60
G1 Z2.400 F600
G0 X9.779 Y-18.211 F7800
G1 Z0.400 F600
G1 A0.15217 F60
G1 X11.701 Y-18.211 A0.15299 F300
G1 X11.701 Y-16.978 F7800
G1 X9.779 Y-16.978 A0.15381 F300
G1 A0.15381 F60
G1 Z2.400 F600
; --- end underextrusion repair ---

; --- Underextrusion repair  conf=0.92 ---
;     bed region: (9.89,-14.69) -> (15.36,-9.28)
G1 A0.15381 F60
G1 Z2.400 F600
G0 X9.888 Y-14.694 F7800
G1 Z0.400 F600
G1 A0.15381 F60
G1 X15.363 Y-14.694 A0.15613 F300
G1 X15.363 Y-13.461 F7800
G1 X9.888 Y-13.461 A0.15846 F300
G1 X9.888 Y-12.228 F7800
G1 X15.363 Y-12.228 A0.16079 F300
G1 X15.363 Y-10.995 F7800
G1 X9.888 Y-10.995 A0.16312 F300
G1 X9.888 Y-9.762 F7800
G1 X15.363 Y-9.762 A0.16545 F300
G1 A0.16545 F60
G1 Z2.400 F600
; --- end underextrusion repair ---

; --- Underextrusion repair  conf=0.89 ---
;     bed region: (4.14,-14.10) -> (12.46,-5.65)
G1 A0.16545 F60
G1 Z2.400 F600
G0 X4.135 Y-14.101 F7800
G1 Z0.400 F600
G1 A0.16545 F60
G1 X12.463 Y-14.101 A0.16899 F300
G1 X12.463 Y-12.868 F7800
G1 X4.135 Y-12.868 A0.17254 F300
G1 X4.135 Y-11.635 F7800
G1 X12.463 Y-11.635 A0.17608 F300
G1 X12.463 Y-10.402 F7800
G1 X4.135 Y-10.402 A0.17962 F300
G1 X4.135 Y-9.169 F7800
G1 X12.463 Y-9.169 A0.18316 F300
G1 X12.463 Y-7.936 F7800
G1 X4.135 Y-7.936 A0.18671 F300
G1 X4.135 Y-6.703 F7800
G1 X12.463 Y-6.703 A0.19025 F300
G1 A0.19025 F60
G1 Z2.400 F600
; --- end underextrusion repair ---

; --- Underextrusion repair  conf=0.86 ---
;     bed region: (16.57,-10.00) -> (18.25,-8.08)
G1 A0.19025 F60
G1 Z2.400 F600
G0 X16.568 Y-9.998 F7800
G1 Z0.400 F600
G1 A0.19025 F60
G1 X18.250 Y-9.998 A0.19096 F300
G1 X18.250 Y-8.765 F7800
G1 X16.568 Y-8.765 A0.19168 F300
G1 A0.19168 F60
G1 Z2.400 F600
; --- end underextrusion repair ---

; --- Underextrusion repair  conf=0.92 ---
;     bed region: (6.18,8.58) -> (9.93,12.50)
G1 A0.19168 F60
G1 Z2.400 F600
G0 X6.178 Y8.584 F7800
G1 Z0.400 F600
G1 A0.19168 F60
G1 X9.931 Y8.584 A0.19328 F300
G1 X9.931 Y9.817 F7800
G1 X6.178 Y9.817 A0.19487 F300
G1 X6.178 Y11.050 F7800
G1 X9.931 Y11.050 A0.19647 F300
G1 X9.931 Y12.283 F7800
G1 X6.178 Y12.283 A0.19807 F300
G1 A0.19807 F60
G1 Z2.400 F600
; --- end underextrusion repair ---

; --- Repair complete ---
G0 Z5.400 F7800
G0 X0.000 Y0.000 F7800
M2  ; program end
