; ============================================================
; ADAPTIVE REPAIR G-CODE
; Layer 0   Z=0.400 mm
; Defects: 33
; ============================================================

G21          ; millimetres
G90          ; absolute positioning
G58          ; work coordinate system
G92 A0

; 
; >>> PHASE 2: UNDEREXTRUSION REPAIRS (33)
;     Re-deposit material into voids on levelled surface
;     Travel optimised: 583.2 -> 165.1 mm (72% saved)
; 
M14  ; purge nozzle

; --- Underextrusion repair  conf=0.89 ---
;     bed region: (-14.90,-12.37) -> (7.31,9.41)
G1 A0.00000 F60
G1 Z1.400 F600
G0 X-14.903 Y-12.365 F7800
G1 Z0.400 F600
G1 A0.00000 F60
G0 X-14.903 Y-12.365 F7800
G1 X7.308 Y-12.365 A0.00945 F300
G0 X7.308 Y-11.132 F7800
G1 X-14.903 Y-11.132 A0.01890 F300
G0 X-14.903 Y-9.899 F7800
G1 X7.308 Y-9.899 A0.02834 F300
G0 X7.308 Y-8.666 F7800
G1 X-14.903 Y-8.666 A0.03779 F300
G0 X-14.903 Y-7.433 F7800
G1 X7.308 Y-7.433 A0.04724 F300
G0 X7.308 Y-6.200 F7800
G1 X-14.903 Y-6.200 A0.05669 F300
G0 X-14.903 Y-4.967 F7800
G1 X7.308 Y-4.967 A0.06613 F300
G0 X7.308 Y-3.734 F7800
G1 X-14.903 Y-3.734 A0.07558 F300
G0 X-14.903 Y-2.501 F7800
G1 X7.308 Y-2.501 A0.08503 F300
G0 X7.308 Y-1.268 F7800
G1 X-14.903 Y-1.268 A0.09448 F300
G0 X-14.903 Y-0.035 F7800
G1 X7.308 Y-0.035 A0.10393 F300
G0 X7.308 Y1.198 F7800
G1 X-14.903 Y1.198 A0.11337 F300
G0 X-14.903 Y2.431 F7800
G1 X7.308 Y2.431 A0.12282 F300
G0 X7.308 Y3.664 F7800
G1 X-14.903 Y3.664 A0.13227 F300
G0 X-14.903 Y4.897 F7800
G1 X7.308 Y4.897 A0.14172 F300
G0 X7.308 Y6.130 F7800
G1 X-14.903 Y6.130 A0.15116 F300
G0 X-14.903 Y7.363 F7800
G1 X7.308 Y7.363 A0.16061 F300
G0 X7.308 Y8.596 F7800
G1 X-14.903 Y8.596 A0.17006 F300
G1 A0.17006 F60
; --- end underextrusion repair ---

; --- Underextrusion repair  conf=0.87 ---
;     bed region: (-7.87,-11.68) -> (3.76,-0.11)
G1 A0.17006 F60
G1 Z1.400 F600
G0 X-7.868 Y-11.683 F7800
G1 Z0.400 F600
G1 A0.17006 F60
G0 X-7.868 Y-11.683 F7800
G1 X3.755 Y-11.683 A0.17500 F300
G0 X3.755 Y-10.450 F7800
G1 X-7.868 Y-10.450 A0.17995 F300
G0 X-7.868 Y-9.216 F7800
G1 X3.755 Y-9.216 A0.18489 F300
G0 X3.755 Y-7.983 F7800
G1 X-7.868 Y-7.983 A0.18984 F300
G0 X-7.868 Y-6.750 F7800
G1 X3.755 Y-6.750 A0.19478 F300
G0 X3.755 Y-5.517 F7800
G1 X-7.868 Y-5.517 A0.19972 F300
G0 X-7.868 Y-4.284 F7800
G1 X3.755 Y-4.284 A0.20467 F300
G0 X3.755 Y-3.051 F7800
G1 X-7.868 Y-3.051 A0.20961 F300
G0 X-7.868 Y-1.818 F7800
G1 X3.755 Y-1.818 A0.21456 F300
G0 X3.755 Y-0.585 F7800
G1 X-7.868 Y-0.585 A0.21950 F300
G1 A0.21950 F60
; --- end underextrusion repair ---

; --- Underextrusion repair  conf=0.86 ---
;     bed region: (-6.94,-16.81) -> (14.94,4.77)
G1 A0.21950 F60
G1 Z1.400 F600
G0 X-6.940 Y-16.810 F7800
G1 Z0.400 F600
G1 A0.21950 F60
G0 X-6.940 Y-16.810 F7800
G1 X14.938 Y-16.810 A0.22881 F300
G0 X14.938 Y-15.577 F7800
G1 X-6.940 Y-15.577 A0.23811 F300
G0 X-6.940 Y-14.344 F7800
G1 X14.938 Y-14.344 A0.24742 F300
G0 X14.938 Y-13.111 F7800
G1 X-6.940 Y-13.111 A0.25673 F300
G0 X-6.940 Y-11.878 F7800
G1 X14.938 Y-11.878 A0.26603 F300
G0 X14.938 Y-10.645 F7800
G1 X-6.940 Y-10.645 A0.27534 F300
G0 X-6.940 Y-9.412 F7800
G1 X14.938 Y-9.412 A0.28464 F300
G0 X14.938 Y-8.179 F7800
G1 X-6.940 Y-8.179 A0.29395 F300
G0 X-6.940 Y-6.946 F7800
G1 X14.938 Y-6.946 A0.30326 F300
G0 X14.938 Y-5.713 F7800
G1 X-6.940 Y-5.713 A0.31256 F300
G0 X-6.940 Y-4.480 F7800
G1 X14.938 Y-4.480 A0.32187 F300
G0 X14.938 Y-3.247 F7800
G1 X-6.940 Y-3.247 A0.33118 F300
G0 X-6.940 Y-2.014 F7800
G1 X14.938 Y-2.014 A0.34048 F300
G0 X14.938 Y-0.781 F7800
G1 X-6.940 Y-0.781 A0.34979 F300
G0 X-6.940 Y0.452 F7800
G1 X14.938 Y0.452 A0.35909 F300
G0 X14.938 Y1.685 F7800
G1 X-6.940 Y1.685 A0.36840 F300
G0 X-6.940 Y2.918 F7800
G1 X14.938 Y2.918 A0.37771 F300
G0 X14.938 Y4.151 F7800
G1 X-6.940 Y4.151 A0.38701 F300
G1 A0.38701 F60
; --- end underextrusion repair ---

; --- Underextrusion repair  conf=0.90 ---
;     bed region: (-3.00,-16.86) -> (12.77,-0.99)
G1 A0.38701 F60
G1 Z1.400 F600
G0 X-3.003 Y-16.863 F7800
G1 Z0.400 F600
G1 A0.38701 F60
G0 X-3.003 Y-16.863 F7800
G1 X12.768 Y-16.863 A0.39372 F300
G0 X12.768 Y-15.630 F7800
G1 X-3.003 Y-15.630 A0.40043 F300
G0 X-3.003 Y-14.396 F7800
G1 X12.768 Y-14.396 A0.40714 F300
G0 X12.768 Y-13.163 F7800
G1 X-3.003 Y-13.163 A0.41385 F300
G0 X-3.003 Y-11.930 F7800
G1 X12.768 Y-11.930 A0.42056 F300
G0 X12.768 Y-10.697 F7800
G1 X-3.003 Y-10.697 A0.42726 F300
G0 X-3.003 Y-9.464 F7800
G1 X12.768 Y-9.464 A0.43397 F300
G0 X12.768 Y-8.231 F7800
G1 X-3.003 Y-8.231 A0.44068 F300
G0 X-3.003 Y-6.998 F7800
G1 X12.768 Y-6.998 A0.44739 F300
G0 X12.768 Y-5.765 F7800
G1 X-3.003 Y-5.765 A0.45410 F300
G0 X-3.003 Y-4.532 F7800
G1 X12.768 Y-4.532 A0.46081 F300
G0 X12.768 Y-3.299 F7800
G1 X-3.003 Y-3.299 A0.46751 F300
G0 X-3.003 Y-2.066 F7800
G1 X12.768 Y-2.066 A0.47422 F300
G1 A0.47422 F60
; --- end underextrusion repair ---

; --- Underextrusion repair  conf=0.86 ---
;     bed region: (5.42,-18.21) -> (7.57,-16.28)
G1 A0.47422 F60
G1 Z1.400 F600
G0 X5.415 Y-18.210 F7800
G1 Z0.400 F600
G1 A0.47422 F60
G0 X5.415 Y-18.210 F7800
G1 X7.570 Y-18.210 A0.47514 F300
G0 X7.570 Y-16.977 F7800
G1 X5.415 Y-16.977 A0.47606 F300
G1 A0.47606 F60
; --- end underextrusion repair ---

; --- Underextrusion repair  conf=0.86 ---
;     bed region: (8.64,-18.25) -> (10.86,-16.27)
G1 A0.47606 F60
G1 Z1.400 F600
G0 X8.635 Y-18.245 F7800
G1 Z0.400 F600
G1 A0.47606 F60
G0 X8.635 Y-18.245 F7800
G1 X10.860 Y-18.245 A0.47700 F300
G0 X10.860 Y-17.012 F7800
G1 X8.635 Y-17.012 A0.47795 F300
G1 A0.47795 F60
; --- end underextrusion repair ---

; --- Underextrusion repair  conf=0.86 ---
;     bed region: (11.94,-18.23) -> (14.12,-16.32)
G1 A0.47795 F60
G1 Z1.400 F600
G0 X11.943 Y-18.228 F7800
G1 Z0.400 F600
G1 A0.47795 F60
G0 X11.943 Y-18.228 F7800
G1 X14.115 Y-18.228 A0.47887 F300
G0 X14.115 Y-16.995 F7800
G1 X11.943 Y-16.995 A0.47980 F300
G1 A0.47980 F60
; --- end underextrusion repair ---

; --- Underextrusion repair  conf=0.87 ---
;     bed region: (16.42,-12.33) -> (18.28,-10.16)
G1 A0.47980 F60
G1 Z1.400 F600
G0 X16.423 Y-12.330 F7800
G1 Z0.400 F600
G1 A0.47980 F60
G0 X16.423 Y-12.330 F7800
G1 X18.280 Y-12.330 A0.48059 F300
G0 X18.280 Y-11.097 F7800
G1 X16.423 Y-11.097 A0.48138 F300
G1 A0.48138 F60
; --- end underextrusion repair ---

; --- Underextrusion repair  conf=0.87 ---
;     bed region: (16.37,-9.06) -> (18.30,-6.83)
G1 A0.48138 F60
G1 Z1.400 F600
G0 X16.370 Y-9.058 F7800
G1 Z0.400 F600
G1 A0.48138 F60
G0 X16.370 Y-9.058 F7800
G1 X18.298 Y-9.058 A0.48220 F300
G0 X18.298 Y-7.825 F7800
G1 X16.370 Y-7.825 A0.48302 F300
G1 A0.48302 F60
; --- end underextrusion repair ---

; --- Underextrusion repair  conf=0.91 ---
;     bed region: (14.80,-6.91) -> (18.33,-3.61)
G1 A0.48302 F60
G1 Z1.400 F600
G0 X14.795 Y-6.905 F7800
G1 Z0.400 F600
G1 A0.48302 F60
G0 X14.795 Y-6.905 F7800
G1 X18.333 Y-6.905 A0.48452 F300
G0 X18.333 Y-5.672 F7800
G1 X14.795 Y-5.672 A0.48603 F300
G0 X14.795 Y-4.439 F7800
G1 X18.333 Y-4.439 A0.48753 F300
G1 A0.48753 F60
; --- end underextrusion repair ---

; --- Underextrusion repair  conf=0.86 ---
;     bed region: (16.34,-2.53) -> (18.37,-0.29)
G1 A0.48753 F60
G1 Z1.400 F600
G0 X16.335 Y-2.530 F7800
G1 Z0.400 F600
G1 A0.48753 F60
G0 X16.335 Y-2.530 F7800
G1 X18.368 Y-2.530 A0.48840 F300
G0 X18.368 Y-1.297 F7800
G1 X16.335 Y-1.297 A0.48926 F300
G1 A0.48926 F60
; --- end underextrusion repair ---

; --- Underextrusion repair  conf=0.85 ---
;     bed region: (16.46,0.81) -> (18.32,2.97)
G1 A0.48926 F60
G1 Z1.400 F600
G0 X16.458 Y0.813 F7800
G1 Z0.400 F600
G1 A0.48926 F60
G0 X16.458 Y0.813 F7800
G1 X18.315 Y0.813 A0.49005 F300
G0 X18.315 Y2.046 F7800
G1 X16.458 Y2.046 A0.49084 F300
G1 A0.49084 F60
; --- end underextrusion repair ---

; --- Underextrusion repair  conf=0.86 ---
;     bed region: (16.49,4.10) -> (18.30,6.19)
G1 A0.49084 F60
G1 Z1.400 F600
G0 X16.493 Y4.103 F7800
G1 Z0.400 F600
G1 A0.49084 F60
G0 X16.493 Y4.103 F7800
G1 X18.298 Y4.103 A0.49161 F300
G0 X18.298 Y5.335 F7800
G1 X16.493 Y5.335 A0.49238 F300
G1 A0.49238 F60
; --- end underextrusion repair ---

; --- Underextrusion repair  conf=0.85 ---
;     bed region: (16.53,7.38) -> (18.28,9.43)
G1 A0.49238 F60
G1 Z1.400 F600
G0 X16.527 Y7.375 F7800
G1 Z0.400 F600
G1 A0.49238 F60
G0 X16.527 Y7.375 F7800
G1 X18.280 Y7.375 A0.49312 F300
G0 X18.280 Y8.608 F7800
G1 X16.527 Y8.608 A0.49387 F300
G1 A0.49387 F60
; --- end underextrusion repair ---

; --- Underextrusion repair  conf=0.95 ---
;     bed region: (7.20,0.06) -> (13.35,6.15)
G1 A0.49387 F60
G1 Z1.400 F600
G0 X7.200 Y0.060 F7800
G1 Z0.400 F600
G1 A0.49387 F60
G0 X7.200 Y0.060 F7800
G1 X13.345 Y0.060 A0.49648 F300
G0 X13.345 Y1.293 F7800
G1 X7.200 Y1.293 A0.49910 F300
G0 X7.200 Y2.526 F7800
G1 X13.345 Y2.526 A0.50171 F300
G0 X13.345 Y3.759 F7800
G1 X7.200 Y3.759 A0.50432 F300
G0 X7.200 Y4.992 F7800
G1 X13.345 Y4.992 A0.50694 F300
G1 A0.50694 F60
; --- end underextrusion repair ---

; --- Underextrusion repair  conf=0.94 ---
;     bed region: (5.35,1.51) -> (12.02,8.18)
G1 A0.50694 F60
G1 Z1.400 F600
G0 X5.345 Y1.513 F7800
G1 Z0.400 F600
G1 A0.50694 F60
G0 X5.345 Y1.513 F7800
G1 X12.015 Y1.513 A0.50977 F300
G0 X12.015 Y2.746 F7800
G1 X5.345 Y2.746 A0.51261 F300
G0 X5.345 Y3.979 F7800
G1 X12.015 Y3.979 A0.51545 F300
G0 X12.015 Y5.212 F7800
G1 X5.345 Y5.212 A0.51829 F300
G0 X5.345 Y6.445 F7800
G1 X12.015 Y6.445 A0.52112 F300
G0 X12.015 Y7.678 F7800
G1 X5.345 Y7.678 A0.52396 F300
G1 A0.52396 F60
; --- end underextrusion repair ---

; --- Underextrusion repair  conf=0.96 ---
;     bed region: (-4.47,-4.98) -> (12.02,11.40)
G1 A0.52396 F60
G1 Z1.400 F600
G0 X-4.473 Y-4.980 F7800
G1 Z0.400 F600
G1 A0.52396 F60
G0 X-4.473 Y-4.980 F7800
G1 X12.015 Y-4.980 A0.53097 F300
G0 X12.015 Y-3.747 F7800
G1 X-4.473 Y-3.747 A0.53799 F300
G0 X-4.473 Y-2.514 F7800
G1 X12.015 Y-2.514 A0.54500 F300
G0 X12.015 Y-1.281 F7800
G1 X-4.473 Y-1.281 A0.55201 F300
G0 X-4.473 Y-0.048 F7800
G1 X12.015 Y-0.048 A0.55903 F300
G0 X12.015 Y1.185 F7800
G1 X-4.473 Y1.185 A0.56604 F300
G0 X-4.473 Y2.418 F7800
G1 X12.015 Y2.418 A0.57306 F300
G0 X12.015 Y3.651 F7800
G1 X-4.473 Y3.651 A0.58007 F300
G0 X-4.473 Y4.884 F7800
G1 X12.015 Y4.884 A0.58708 F300
G0 X12.015 Y6.117 F7800
G1 X-4.473 Y6.117 A0.59410 F300
G0 X-4.473 Y7.350 F7800
G1 X12.015 Y7.350 A0.60111 F300
G0 X12.015 Y8.583 F7800
G1 X-4.473 Y8.583 A0.60812 F300
G0 X-4.473 Y9.816 F7800
G1 X12.015 Y9.816 A0.61514 F300
G0 X12.015 Y11.049 F7800
G1 X-4.473 Y11.049 A0.62215 F300
G1 A0.62215 F60
; --- end underextrusion repair ---

; --- Underextrusion repair  conf=0.91 ---
;     bed region: (-2.53,5.28) -> (1.29,8.94)
G1 A0.62215 F60
G1 Z1.400 F600
G0 X-2.530 Y5.275 F7800
G1 Z0.400 F600
G1 A0.62215 F60
G0 X-2.530 Y5.275 F7800
G1 X1.288 Y5.275 A0.62377 F300
G0 X1.288 Y6.508 F7800
G1 X-2.530 Y6.508 A0.62540 F300
G0 X-2.530 Y7.741 F7800
G1 X1.288 Y7.741 A0.62702 F300
G1 A0.62702 F60
; --- end underextrusion repair ---

; --- Underextrusion repair  conf=0.90 ---
;     bed region: (2.56,8.65) -> (6.08,12.07)
G1 A0.62702 F60
G1 Z1.400 F600
G0 X2.563 Y8.653 F7800
G1 Z0.400 F600
G1 A0.62702 F60
G0 X2.563 Y8.653 F7800
G1 X6.083 Y8.653 A0.62852 F300
G0 X6.083 Y9.886 F7800
G1 X2.563 Y9.886 A0.63002 F300
G0 X2.563 Y11.119 F7800
G1 X6.083 Y11.119 A0.63151 F300
G1 A0.63151 F60
; --- end underextrusion repair ---

; --- Underextrusion repair  conf=0.86 ---
;     bed region: (5.07,16.41) -> (7.01,18.26)
G1 A0.63151 F60
G1 Z1.400 F600
G0 X5.065 Y16.405 F7800
G1 Z0.400 F600
G1 A0.63151 F60
G0 X5.065 Y16.405 F7800
G1 X7.010 Y16.405 A0.63234 F300
G0 X7.010 Y17.638 F7800
G1 X5.065 Y17.638 A0.63317 F300
G1 A0.63317 F60
; --- end underextrusion repair ---

; --- Underextrusion repair  conf=0.86 ---
;     bed region: (-1.53,16.34) -> (0.46,18.21)
G1 A0.63317 F60
G1 Z1.400 F600
G0 X-1.533 Y16.335 F7800
G1 Z0.400 F600
G1 A0.63317 F60
G0 X-1.533 Y16.335 F7800
G1 X0.465 Y16.335 A0.63402 F300
G0 X0.465 Y17.568 F7800
G1 X-1.533 Y17.568 A0.63487 F300
G1 A0.63487 F60
; --- end underextrusion repair ---

; --- Underextrusion repair  conf=0.96 ---
;     bed region: (-9.53,8.11) -> (-2.44,15.06)
G1 A0.63487 F60
G1 Z1.400 F600
G0 X-9.530 Y8.110 F7800
G1 Z0.400 F600
G1 A0.63487 F60
G0 X-9.530 Y8.110 F7800
G1 X-2.440 Y8.110 A0.63788 F300
G0 X-2.440 Y9.343 F7800
G1 X-9.530 Y9.343 A0.64090 F300
G0 X-9.530 Y10.576 F7800
G1 X-2.440 Y10.576 A0.64392 F300
G0 X-2.440 Y11.809 F7800
G1 X-9.530 Y11.809 A0.64693 F300
G0 X-9.530 Y13.042 F7800
G1 X-2.440 Y13.042 A0.64995 F300
G0 X-2.440 Y14.275 F7800
G1 X-9.530 Y14.275 A0.65296 F300
G1 A0.65296 F60
; --- end underextrusion repair ---

; --- Underextrusion repair  conf=0.95 ---
;     bed region: (-16.41,4.45) -> (-5.82,15.04)
G1 A0.65296 F60
G1 Z1.400 F600
G0 X-16.407 Y4.453 F7800
G1 Z0.400 F600
G1 A0.65296 F60
G0 X-16.407 Y4.453 F7800
G1 X-5.818 Y4.453 A0.65747 F300
G0 X-5.818 Y5.686 F7800
G1 X-16.407 Y5.686 A0.66197 F300
G0 X-16.407 Y6.919 F7800
G1 X-5.818 Y6.919 A0.66648 F300
G0 X-5.818 Y8.152 F7800
G1 X-16.407 Y8.152 A0.67098 F300
G0 X-16.407 Y9.385 F7800
G1 X-5.818 Y9.385 A0.67549 F300
G0 X-5.818 Y10.618 F7800
G1 X-16.407 Y10.618 A0.67999 F300
G0 X-16.407 Y11.851 F7800
G1 X-5.818 Y11.851 A0.68450 F300
G0 X-5.818 Y13.084 F7800
G1 X-16.407 Y13.084 A0.68900 F300
G0 X-16.407 Y14.317 F7800
G1 X-5.818 Y14.317 A0.69351 F300
G1 A0.69351 F60
; --- end underextrusion repair ---

; --- Underextrusion repair  conf=0.92 ---
;     bed region: (-15.08,10.63) -> (-10.65,14.97)
G1 A0.69351 F60
G1 Z1.400 F600
G0 X-15.078 Y10.630 F7800
G1 Z0.400 F600
G1 A0.69351 F60
G0 X-15.078 Y10.630 F7800
G1 X-10.648 Y10.630 A0.69539 F300
G0 X-10.648 Y11.863 F7800
G1 X-15.078 Y11.863 A0.69728 F300
G0 X-15.078 Y13.096 F7800
G1 X-10.648 Y13.096 A0.69916 F300
G0 X-10.648 Y14.329 F7800
G1 X-15.078 Y14.329 A0.70104 F300
G1 A0.70104 F60
; --- end underextrusion repair ---

; --- Underextrusion repair  conf=0.96 ---
;     bed region: (-14.34,1.60) -> (-7.03,8.79)
G1 A0.70104 F60
G1 Z1.400 F600
G0 X-14.343 Y1.600 F7800
G1 Z0.400 F600
G1 A0.70104 F60
G0 X-14.343 Y1.600 F7800
G1 X-7.025 Y1.600 A0.70416 F300
G0 X-7.025 Y2.833 F7800
G1 X-14.343 Y2.833 A0.70727 F300
G0 X-14.343 Y4.066 F7800
G1 X-7.025 Y4.066 A0.71038 F300
G0 X-7.025 Y5.299 F7800
G1 X-14.343 Y5.299 A0.71350 F300
G0 X-14.343 Y6.532 F7800
G1 X-7.025 Y6.532 A0.71661 F300
G0 X-7.025 Y7.765 F7800
G1 X-14.343 Y7.765 A0.71972 F300
G1 A0.71972 F60
; --- end underextrusion repair ---

; --- Underextrusion repair  conf=0.90 ---
;     bed region: (-15.03,-2.32) -> (-4.30,8.11)
G1 A0.71972 F60
G1 Z1.400 F600
G0 X-15.025 Y-2.320 F7800
G1 Z0.400 F600
G1 A0.71972 F60
G0 X-15.025 Y-2.320 F7800
G1 X-4.295 Y-2.320 A0.72429 F300
G0 X-4.295 Y-1.087 F7800
G1 X-15.025 Y-1.087 A0.72885 F300
G0 X-15.025 Y0.146 F7800
G1 X-4.295 Y0.146 A0.73341 F300
G0 X-4.295 Y1.379 F7800
G1 X-15.025 Y1.379 A0.73798 F300
G0 X-15.025 Y2.612 F7800
G1 X-4.295 Y2.612 A0.74254 F300
G0 X-4.295 Y3.845 F7800
G1 X-15.025 Y3.845 A0.74711 F300
G0 X-15.025 Y5.078 F7800
G1 X-4.295 Y5.078 A0.75167 F300
G0 X-4.295 Y6.311 F7800
G1 X-15.025 Y6.311 A0.75624 F300
G0 X-15.025 Y7.544 F7800
G1 X-4.295 Y7.544 A0.76080 F300
G1 A0.76080 F60
; --- end underextrusion repair ---

; --- Underextrusion repair  conf=0.96 ---
;     bed region: (-15.03,-5.93) -> (-2.06,7.19)
G1 A0.76080 F60
G1 Z1.400 F600
G0 X-15.025 Y-5.925 F7800
G1 Z0.400 F600
G1 A0.76080 F60
G0 X-15.025 Y-5.925 F7800
G1 X-2.055 Y-5.925 A0.76632 F300
G0 X-2.055 Y-4.692 F7800
G1 X-15.025 Y-4.692 A0.77183 F300
G0 X-15.025 Y-3.459 F7800
G1 X-2.055 Y-3.459 A0.77735 F300
G0 X-2.055 Y-2.226 F7800
G1 X-15.025 Y-2.226 A0.78287 F300
G0 X-15.025 Y-0.993 F7800
G1 X-2.055 Y-0.993 A0.78839 F300
G0 X-2.055 Y0.240 F7800
G1 X-15.025 Y0.240 A0.79390 F300
G0 X-15.025 Y1.473 F7800
G1 X-2.055 Y1.473 A0.79942 F300
G0 X-2.055 Y2.706 F7800
G1 X-15.025 Y2.706 A0.80494 F300
G0 X-15.025 Y3.939 F7800
G1 X-2.055 Y3.939 A0.81046 F300
G0 X-2.055 Y5.172 F7800
G1 X-15.025 Y5.172 A0.81597 F300
G0 X-15.025 Y6.405 F7800
G1 X-2.055 Y6.405 A0.82149 F300
G1 A0.82149 F60
; --- end underextrusion repair ---

; --- Underextrusion repair  conf=0.94 ---
;     bed region: (-15.01,-9.06) -> (-10.26,-4.33)
G1 A0.82149 F60
G1 Z1.400 F600
G0 X-15.008 Y-9.058 F7800
G1 Z0.400 F600
G1 A0.82149 F60
G0 X-15.008 Y-9.058 F7800
G1 X-10.263 Y-9.058 A0.82351 F300
G0 X-10.263 Y-7.825 F7800
G1 X-15.008 Y-7.825 A0.82553 F300
G0 X-15.008 Y-6.591 F7800
G1 X-10.263 Y-6.591 A0.82755 F300
G0 X-10.263 Y-5.358 F7800
G1 X-15.008 Y-5.358 A0.82956 F300
G1 A0.82956 F60
; --- end underextrusion repair ---

; --- Underextrusion repair  conf=0.96 ---
;     bed region: (-14.24,-14.89) -> (-5.21,-5.77)
G1 A0.82956 F60
G1 Z1.400 F600
G0 X-14.238 Y-14.885 F7800
G1 Z0.400 F600
G1 A0.82956 F60
G0 X-14.238 Y-14.885 F7800
G1 X-5.205 Y-14.885 A0.83341 F300
G0 X-5.205 Y-13.652 F7800
G1 X-14.238 Y-13.652 A0.83725 F300
G0 X-14.238 Y-12.419 F7800
G1 X-5.205 Y-12.419 A0.84109 F300
G0 X-5.205 Y-11.186 F7800
G1 X-14.238 Y-11.186 A0.84493 F300
G0 X-14.238 Y-9.953 F7800
G1 X-5.205 Y-9.953 A0.84878 F300
G0 X-5.205 Y-8.720 F7800
G1 X-14.238 Y-8.720 A0.85262 F300
G0 X-14.238 Y-7.487 F7800
G1 X-5.205 Y-7.487 A0.85646 F300
G0 X-5.205 Y-6.254 F7800
G1 X-14.238 Y-6.254 A0.86030 F300
G1 A0.86030 F60
; --- end underextrusion repair ---

; --- Underextrusion repair  conf=0.86 ---
;     bed region: (-11.02,-18.30) -> (-8.97,-16.46)
G1 A0.86030 F60
G1 Z1.400 F600
G0 X-11.018 Y-18.298 F7800
G1 Z0.400 F600
G1 A0.86030 F60
G0 X-11.018 Y-18.298 F7800
G1 X-8.968 Y-18.298 A0.86117 F300
G0 X-8.968 Y-17.065 F7800
G1 X-11.018 Y-17.065 A0.86205 F300
G1 A0.86205 F60
; --- end underextrusion repair ---

; --- Underextrusion repair  conf=0.87 ---
;     bed region: (-14.29,-18.33) -> (-12.17,-16.48)
G1 A0.86205 F60
G1 Z1.400 F600
G0 X-14.290 Y-18.333 F7800
G1 Z0.400 F600
G1 A0.86205 F60
G0 X-14.290 Y-18.333 F7800
G1 X-12.170 Y-18.333 A0.86295 F300
G0 X-12.170 Y-17.100 F7800
G1 X-14.290 Y-17.100 A0.86385 F300
G1 A0.86385 F60
; --- end underextrusion repair ---

; --- Underextrusion repair  conf=0.86 ---
;     bed region: (-7.71,-18.32) -> (-5.61,-16.44)
G1 A0.86385 F60
G1 Z1.400 F600
G0 X-7.710 Y-18.315 F7800
G1 Z0.400 F600
G1 A0.86385 F60
G0 X-7.710 Y-18.315 F7800
G1 X-5.608 Y-18.315 A0.86474 F300
G0 X-5.608 Y-17.082 F7800
G1 X-7.710 Y-17.082 A0.86564 F300
G1 A0.86564 F60
; --- end underextrusion repair ---

; --- Underextrusion repair  conf=0.86 ---
;     bed region: (-4.46,-18.35) -> (-2.27,-16.32)
G1 A0.86564 F60
G1 Z1.400 F600
G0 X-4.455 Y-18.350 F7800
G1 Z0.400 F600
G1 A0.86564 F60
G0 X-4.455 Y-18.350 F7800
G1 X-2.265 Y-18.350 A0.86657 F300
G0 X-2.265 Y-17.117 F7800
G1 X-4.455 Y-17.117 A0.86750 F300
G1 A0.86750 F60
; --- end underextrusion repair ---

; --- Repair complete ---
G0 Z5.400 F7800
G0 X0.000 Y0.000 F7800
M2  ; program end
