; generated by SuperSlicer 2.5.59 on 2024-12-04 at 12:29:15 UTC

; 

; external perimeters extrusion width = 1.37mm
; perimeters extrusion width = 1.37mm
; infill extrusion width = 1.37mm
; solid infill extrusion width = 1.37mm
; top infill extrusion width = 1.44mm
; first layer extrusion width = 1.37mm

; object:{"name":"Star_40_H0","id":"Star_40_H0.4.stl id:0 copy 0","object_center":[0.000000,0.000000,0.000000],"boundingbox_center":[0.000000,0.000000,0.200000],"boundingbox_size":[39.000000,37.091202,0.400000]}
; plater:{"center":[0.000000,0.000000,0.000000],"boundingbox_center":[0.000000,0.000000,0.200000],"boundingbox_size":[39.000000,37.091202,0.400000]}

;TYPE:Custom
;CHAMP
;GCODE generated with Superslicer

;START GCODE
G58 G1 G90 X0 Y0 Z50 F1500
G21 G17 G64 
G58 G0 X0 Y0 Z20 
G92 A0     ;Reset A Axis
G55
G92 B0     ;Reset B Axis
G58 G90 F540
;M332 ;Turn on build plate and wait for heat up 

;END OF START GCODE
;CERAMIC ON
G58 
G0 G90 X0 Y0 
G0 Z20 


;_TOOLCHANGE 0
M107
;LAYER_CHANGE
;Z:0.4
;HEIGHT:0.4
;LAYER NUMBER = 0
M14 ;Purge nozzle
G1 Z0.4 F7800
; printing object Star_40_H0.4.stl id:0 copy 0
G1 X9.7208 Y16.11
;TYPE:External perimeter
;WIDTH:1.37
G1 F900
G1 X0 Y9.4202 A0.00376
G1 X-9.7208 Y16.11 A0.00753
G1 X-10.4555 Y15.5762 A0.00782
G1 X-7.0971 Y4.2639 A0.01158
G1 X-16.4634 Y-2.9139 A0.01535
G1 X-16.1827 Y-3.7776 A0.01564
G1 X-4.3862 Y-4.0792 A0.0194
G1 X-0.4541 Y-15.2051 A0.02316
G1 X0.4541 Y-15.2051 A0.02345
G1 X4.3862 Y-4.0792 A0.02722
G1 X16.1827 Y-3.7776 A0.03098
G1 X16.4634 Y-2.9139 A0.03127
G1 X7.0971 Y4.2639 A0.03504
G1 X10.4555 Y15.5762 A0.0388
G1 X9.8871 Y15.9892 A0.03902
;WIPE_START
;WIPE_END
G1 X14.5897 Y-1.9634 F7800
;TYPE:Internal infill
G1 F900
G2 X11.7847 Y-2.9523 I-1.9229 J.9816 A.04007
G1 X13.1677 Y-1.5693 A0.04069
G1 X12.1396 Y-0.7814 A0.04111
G1 X9.921 Y-3 A0.04211
G1 X8.0573 Y-3.0476 A0.0427
G1 X11.1114 Y0.0065 A0.04408
G1 X10.0832 Y0.7944 A0.04449
G1 X5.6267 Y-3.6621 A0.0465
G1 X1.3189 Y-11.6021 F7800
G1 F900
G1 X-0.1974 Y-13.1183 A0.04719
G1 X-0.6716 Y-11.7765 A0.04764
G3 X2.3985 Y-6.8904 I-3.5788 J5.6562 A.04955
G1 X-1.1458 Y-10.4347 A0.05114
G1 X-1.6201 Y-9.0928 A0.0516
G1 X9.0551 Y1.5823 A0.05641
G1 X8.0269 Y2.3703 A0.05683
G1 X-2.0943 Y-7.751 A0.06139
G1 X-2.5685 Y-6.4091 A0.06185
G1 X6.9988 Y3.1582 A0.06616
G1 X6.0148 Y3.9122 A0.06656
G1 X6.0478 Y4.0232 A0.0666
G1 X-3.0428 Y-5.0673 A0.0707
G1 X-3.517 Y-3.7255 A0.07115
G1 X6.8146 Y6.6061 A0.07581
G1 X7.5814 Y9.189 A0.07667
G1 X-4.7401 Y-3.1324 A0.08223
G1 X-6.5109 Y-3.0872 A0.08279
G1 X8.3482 Y11.7719 A0.0895
G1 X9.1151 Y14.3548 A0.09036
G1 X-8.2817 Y-3.0419 A0.0982
G1 X-10.0525 Y-2.9966 A0.09877
G1 X3.9332 Y10.989 A0.10508
G1 X0 Y8.2823 A0.1066
G1 X-0.3493 Y8.5226 A0.10674
G1 X-11.8233 Y-2.9513 A0.11191
G1 X-13.5941 Y-2.9061 A0.11248
G1 X-1.425 Y9.263 A0.11797
G1 X-2.5008 Y10.0033 A0.11838
G1 X-6.6047 Y5.8993 A0.12024
G1 X-7.0205 Y7.2997 A0.1207
G1 X-3.5765 Y10.7436 A0.12225
G1 X-4.6523 Y11.4839 A0.12267
G1 X-7.4362 Y8.7 A0.12393
G1 X-7.852 Y10.1003 A0.12439
G1 X-5.728 Y12.2242 A0.12535
G1 X-6.8038 Y12.9646 A0.12577
G1 X-8.2677 Y11.5007 A0.12643
G1 X-8.6834 Y12.901 A0.12689
G1 X-7.8796 Y13.7049 A0.12726
G1 X-8.9553 Y14.4452 A0.12767
G1 X-9.5433 Y13.8572 A0.12794
; stop printing object Star_40_H0.4.stl id:0 copy 0
M107
;TYPE:Custom
;CERAMIC OFF
G58 G91 G0 Z20 
G90
;POLYMER OFF
G55 G91 G0 Z20
G90 
M65 P1 ;Disengage polymer solenoid 
;CERAMIC_LAYER_END
;START OF THE END GCODE



M20 #620=60 #621=0.4  ;Dry 
M311 ;Laser scan
M25 #625=0.4 ;Photo
M111 #622=0.4  ;record end of layer data 



G1 G53 Z-10 F1000
G1 G54 X0 Y-100 F2000

M999 ;Exit process monitoring script
M30 
;END
; filament used [mm] = 0.13
; filament used [cm3] = 0.16
; total filament used [g] = 0.00
; total filament cost = 0.00
; total layers count = 1
; estimated printing time (normal mode) = 53s

; SuperSlicer_config = begin
; allow_empty_layers = 0
; arc_fitting = 1
; arc_fitting_tolerance = 20%
; avoid_crossing_not_first_layer = 1
; avoid_crossing_perimeters = 0
; avoid_crossing_perimeters_max_detour = 0
; bed_custom_model = 
; bed_custom_texture = 
; bed_shape = 59.7717x5.22934,59.0885x10.4189,57.9555x15.5291,56.3816x20.5212,54.3785x25.3571,51.9615x30,49.1491x34.4146,45.9627x38.5673,42.4264x42.4264,38.5673x45.9627,34.4146x49.1491,30x51.9615,25.3571x54.3785,20.5212x56.3816,15.5291x57.9555,10.4189x59.0885,5.22934x59.7717,3.67394e-15x60,-5.22934x59.7717,-10.4189x59.0885,-15.5291x57.9555,-20.5212x56.3816,-25.3571x54.3785,-30x51.9615,-34.4146x49.1491,-38.5673x45.9627,-42.4264x42.4264,-45.9627x38.5673,-49.1491x34.4146,-51.9615x30,-54.3785x25.3571,-56.3816x20.5212,-57.9555x15.5291,-59.0885x10.4189,-59.7717x5.22934,-60x7.34788e-15,-59.7717x-5.22934,-59.0885x-10.4189,-57.9555x-15.5291,-56.3816x-20.5212,-54.3785x-25.3571,-51.9615x-30,-49.1491x-34.4146,-45.9627x-38.5673,-42.4264x-42.4264,-38.5673x-45.9627,-34.4146x-49.1491,-30x-51.9615,-25.3571x-54.3785,-20.5212x-56.3816,-15.5291x-57.9555,-10.4189x-59.0885,-5.22934x-59.7717,-1.10218e-14x-60,5.22934x-59.7717,10.4189x-59.0885,15.5291x-57.9555,20.5212x-56.3816,25.3571x-54.3785,30x-51.9615,34.4146x-49.1491,38.5673x-45.9627,42.4264x-42.4264,45.9627x-38.5673,49.1491x-34.4146,51.9615x-30,54.3785x-25.3571,56.3816x-20.5212,57.9555x-15.5291,59.0885x-10.4189,59.7717x-5.22934,60x-1.46958e-14
; bed_temperature = 0,0
; before_layer_gcode = ;LAYER NUMBER = {layer_num}\n{if current_extruder == 0 && layer_num > 0}\n;CERAMIC_LAYER_END\n{if laser_scanning ==1}{if PDL ==1}M311 #635={(first_layer_print_min[0]+skirt_distance)*-1} ;Laser Scan{endif}\n{if drying_time > 0}M20 #620={drying_time}  #621={layer_z-layer_height}  ;Dry {endif}\n\nM311 ;Laser scan\nM25 #625={layer_z-layer_height} ;Photo{else}{if drying_time == 0}M25 #625={layer_z-layer_height} ;Photo{else}M225 #620={drying_time} #622={layer_z-layer_height} ;Dry and Photo {endif}{endif}\nM111 #622={layer_z-layer_height}  ;record end of layer data \n\n{if planarising ==1}{if (layer_num/n_layers)-int(layer_num/n_layers) == 0}\n;PLACEHOLDER_FACE_MILLING at Z{layer_z-layer_height}\n\n;PLACEHOLDER_CONTOUR_MILLING at Z{layer_z-layer_height}\n\n;Camera Photo\nM25 #625={layer_z-layer_height}{endif}{endif}{endif}M14 ;Purge nozzle
; between_objects_gcode = 
; bottom_fill_pattern = concentricgapfill
; bottom_solid_layers = 0
; bottom_solid_min_thickness = 0
; bridge_acceleration = 0
; bridge_angle = 0
; bridge_fan_speed = 100,100
; bridge_fill_pattern = rectilinear
; bridge_flow_ratio = 100%
; bridge_internal_acceleration = 0
; bridge_internal_fan_speed = 1,-1
; bridge_overlap = 90%
; bridge_overlap_min = 80%
; bridge_speed = 60
; bridge_speed_internal = 150%
; bridge_type = nozzle
; bridged_infill_margin = 200%
; brim_acceleration = 0
; brim_ears = 0
; brim_ears_detection_length = 1
; brim_ears_max_angle = 125
; brim_ears_pattern = concentric
; brim_inside_holes = 0
; brim_per_object = 0
; brim_separation = 0
; brim_speed = 50%
; brim_width = 0
; brim_width_interior = 0
; chamber_temperature = 0,0
; clip_multipart_objects = 1
; color_change_gcode = 
; complete_objects = 0
; complete_objects_one_skirt = 0
; complete_objects_sort = object
; cooling_tube_length = 5
; cooling_tube_retraction = 91.5
; curve_smoothing_angle_concave = 0
; curve_smoothing_angle_convex = 0
; curve_smoothing_cutoff_dist = 2
; curve_smoothing_precision = 0
; default_acceleration = 0
; default_filament_profile = 
; default_print_profile = 
; default_speed = 100
; deretract_speed = 1,0
; disable_fan_first_layers = 1,1
; dont_support_bridges = 0
; draft_shield = enabled
; duplicate_distance = 6
; end_filament_gcode = ";CERAMIC OFF\nG58 G91 G0 Z20 \nG90\n";";POLYMER OFF\nG55 G91 G0 Z20\nG90 \nM65 P1 ;Disengage polymer solenoid \n"
; end_gcode = ;CERAMIC_LAYER_END\n;START OF THE END GCODE\n{if current_extruder == 0}\n\n{if laser_scanning ==1}{if PDL ==1}M311 ;Laser Scan{endif}\n{if drying_time > 0}M20 #620={drying_time} #621={layer_z}  ;Dry {endif}\nM311 ;Laser scan\nM25 #625={layer_z} ;Photo{else}{if drying_time == 0}M25 #625={layer_z} ;Photo{else}M225 #620={drying_time} #622={layer_z} ;Dry and Photo {endif}{endif}\nM111 #622={layer_z}  ;record end of layer data \n\n{endif}{if finishing ==1}\n;PLACEHOLDER_FINISHING at Z{(layer_z)}\n\nT1 M6\n\n;Camera Photo\nM25 #625={layer_z-layer_height}\n{endif}\n\nG1 G53 Z-10 F1000\nG1 G54 X0 Y-100 F2000\n\nM999 ;Exit process monitoring script\nM30 \n;END\n
; enforce_full_fill_volume = 0
; enforce_retract_first_layer = 1
; ensure_vertical_shell_thickness = 0
; exact_last_layer_height = 0
; external_infill_margin = 150%
; external_perimeter_acceleration = 0
; external_perimeter_cut_corners = 0%
; external_perimeter_extrusion_spacing = 
; external_perimeter_extrusion_width = 100%
; external_perimeter_fan_speed = 1,-1
; external_perimeter_overlap = 100%
; external_perimeter_speed = 100%
; external_perimeters_first = 1
; external_perimeters_hole = 0
; external_perimeters_nothole = 0
; external_perimeters_vase = 0
; extra_loading_move = -2
; extra_perimeters = 0
; extra_perimeters_odd_layers = 0
; extra_perimeters_overhangs = 0
; extruder_clearance_height = 20
; extruder_clearance_radius = 20
; extruder_colour = #000000;#FFFFFF
; extruder_fan_offset = 0%,0%
; extruder_offset = 0x0,0x0
; extruder_temperature_offset = 0,0
; extrusion_axis = E
; extrusion_multiplier = 0.8,1
; extrusion_spacing = 105%
; extrusion_width = 
; fan_always_on = 0,0
; fan_below_layer_time = 0,0
; fan_kickstart = 0
; fan_percentage = 0
; fan_speedup_overhangs = 1
; fan_speedup_time = 0
; feature_gcode = 
; filament_colour = #808080;#FF0000
; filament_cooling_final_speed = 3.4,3.4
; filament_cooling_initial_speed = 2.2,2.2
; filament_cooling_moves = 4,4
; filament_cooling_zone_pause = 0,0
; filament_cost = 0,0
; filament_custom_variables = ;
; filament_density = 0,0
; filament_diameter = 40.5,1.75
; filament_dip_extraction_speed = 70,70
; filament_dip_insertion_speed = 33,33
; filament_enable_toolchange_part_fan = 0,0
; filament_enable_toolchange_temp = 0,0
; filament_load_time = 0,0
; filament_loading_speed = 28,28
; filament_loading_speed_start = 3,3
; filament_max_overlap = 100%,100%
; filament_max_speed = 0,0
; filament_max_volumetric_speed = 15,15
; filament_max_wipe_tower_speed = 0,0
; filament_melt_zone_pause = 0,0
; filament_minimal_purge_on_wipe_tower = 15,15
; filament_notes = ;
; filament_ramming_parameters = "120 100 6.6 6.8 7.2 7.6 7.9 8.2 8.7 9.4 9.9 10.0| 0.05 6.6 0.45 6.8 0.95 7.8 1.45 8.3 1.95 9.7 2.45 10 2.95 7.6 3.45 7.6 3.95 7.6 4.45 7.6 4.95 7.6";"120 100 6.6 6.8 7.2 7.6 7.9 8.2 8.7 9.4 9.9 10.0| 0.05 6.6 0.45 6.8 0.95 7.8 1.45 8.3 1.95 9.7 2.45 10 2.95 7.6 3.45 7.6 3.95 7.6 4.45 7.6 4.95 7.6"
; filament_settings_id = Ceramic;"PLA 1.75"
; filament_shrink = 100%,100%
; filament_skinnydip_distance = 31,31
; filament_soluble = 0,0
; filament_spool_weight = 0,0
; filament_toolchange_delay = 0,0
; filament_toolchange_part_fan_speed = 50,50
; filament_toolchange_temp = 200,200
; filament_type = other0;PLA
; filament_unload_time = 0,0
; filament_unloading_speed = 90,90
; filament_unloading_speed_start = 100,100
; filament_use_fast_skinnydip = 0,0
; filament_use_skinnydip = 0,0
; filament_vendor = (Unknown)
; filament_wipe_advanced_pigment = 0.5,0.5
; fill_angle = 45
; fill_angle_increment = 0
; fill_density = 100%
; fill_pattern = rectilinear
; fill_smooth_distribution = 10%
; fill_smooth_width = 50%
; fill_top_flow_ratio = 100%
; first_layer_acceleration = 0
; first_layer_acceleration_over_raft = 0
; first_layer_bed_temperature = 0,0
; first_layer_extrusion_spacing = 
; first_layer_extrusion_width = 100%
; first_layer_flow_ratio = 100%
; first_layer_height = 0.4
; first_layer_infill_speed = 15
; first_layer_min_speed = 0
; first_layer_size_compensation = 0
; first_layer_size_compensation_layers = 1
; first_layer_speed = 15
; first_layer_speed_over_raft = 30
; first_layer_temperature = 0,220
; full_fan_speed_layer = 4,4
; fuzzy_skin = none
; fuzzy_skin_point_dist = 200%
; fuzzy_skin_thickness = 150%
; gap_fill_acceleration = 0
; gap_fill_enabled = 1
; gap_fill_extension = 0
; gap_fill_flow_match_perimeter = 0%
; gap_fill_last = 0
; gap_fill_max_width = 0
; gap_fill_min_area = 100%
; gap_fill_min_length = 0
; gap_fill_min_width = 0
; gap_fill_overlap = 100%
; gap_fill_speed = 20
; gcode_comments = 0
; gcode_filename_illegal_char = 
; gcode_flavor = mach3
; gcode_label_objects = 1
; gcode_precision_e = 5
; gcode_precision_xyz = 4
; gcode_resolution = 0
; gcode_substitutions = 
; high_current_on_filament_swap = 0
; hole_size_compensation = 0
; hole_size_threshold = 100
; hole_to_polyhole = 0
; hole_to_polyhole_threshold = 0.01
; hole_to_polyhole_twisted = 1
; host_type = octoprint
; infill_acceleration = 0
; infill_anchor = 600%
; infill_anchor_max = 0
; infill_connection = connected
; infill_connection_bottom = connected
; infill_connection_bridge = connected
; infill_connection_solid = connected
; infill_connection_top = connected
; infill_dense = 0
; infill_dense_algo = autoenlarged
; infill_every_layers = 1
; infill_extruder = 1
; infill_extrusion_spacing = 
; infill_extrusion_width = 100%
; infill_first = 0
; infill_only_where_needed = 0
; infill_overlap = 25%
; infill_speed = 80
; init_z_rotate = 0
; interface_shells = 0
; ironing = 0
; ironing_acceleration = 0
; ironing_angle = -1
; ironing_flowrate = 15%
; ironing_spacing = 0.1
; ironing_speed = 15
; ironing_type = top
; layer_gcode = 
; layer_height = 0.4
; lift_min = 0
; machine_limits_usage = time_estimate_only
; machine_max_acceleration_e = 10000,5000
; machine_max_acceleration_extruding = 1500,1250
; machine_max_acceleration_retracting = 1500,1250
; machine_max_acceleration_travel = 1500,1250
; machine_max_acceleration_x = 9000,1000
; machine_max_acceleration_y = 9000,1000
; machine_max_acceleration_z = 500,200
; machine_max_feedrate_e = 120,120
; machine_max_feedrate_x = 500,200
; machine_max_feedrate_y = 500,200
; machine_max_feedrate_z = 12,12
; machine_max_jerk_e = 2.5,2.5
; machine_max_jerk_x = 10,10
; machine_max_jerk_y = 10,10
; machine_max_jerk_z = 0.2,0.4
; machine_min_extruding_rate = 0,0
; machine_min_travel_rate = 0,0
; max_fan_speed = 100,100
; max_gcode_per_second = 1500
; max_layer_height = 75%,75%
; max_print_height = 60
; max_print_speed = 80
; max_speed_reduction = 90%,90%
; max_volumetric_extrusion_rate_slope_negative = 0
; max_volumetric_extrusion_rate_slope_positive = 0
; max_volumetric_speed = 0
; milling_after_z = 200%
; milling_extra_size = 150%
; milling_post_process = 1
; milling_speed = 30
; milling_toolchange_end_gcode = 
; milling_toolchange_start_gcode = 
; min_bead_width = 85%
; min_fan_speed = 35,35
; min_feature_size = 25%
; min_layer_height = 5%,5%
; min_length = 0.0001
; min_print_speed = 10,10
; min_skirt_length = 0
; min_width_top_surface = 200%
; mmu_segmented_region_max_width = 0
; model_precision = 0.0001
; no_perimeter_unsupported_algo = noperi
; notes = 
; nozzle_diameter = 1.37,1.2
; only_one_perimeter_first_layer = 0
; only_one_perimeter_top = 0
; only_one_perimeter_top_other_algo = 0
; only_retract_when_crossing_perimeters = 1
; ooze_prevention = 0
; output_filename_format = {input_filename_base}.gcode
; over_bridge_flow_ratio = 100%
; overhangs_acceleration = 0
; overhangs_reverse = 0
; overhangs_reverse_threshold = 250%
; overhangs_speed = 100%
; overhangs_speed_enforce = 0
; overhangs_width = 75%
; overhangs_width_speed = 55%
; parking_pos_retraction = 92
; pause_print_gcode = 
; perimeter_acceleration = 0
; perimeter_bonding = 0%
; perimeter_extruder = 1
; perimeter_extrusion_spacing = 
; perimeter_extrusion_width = 100%
; perimeter_generator = classic
; perimeter_loop = 0
; perimeter_loop_seam = rear
; perimeter_overlap = 100%
; perimeter_round_corners = 0
; perimeter_speed = 50
; perimeters = 1
; physical_printer_settings_id = 
; post_process = 
; print_custom_variables = 
; print_extrusion_multiplier = 100%
; print_retract_length = -1
; print_retract_lift = -1
; print_settings_id = CHAMP Default
; print_temperature = 0
; printer_custom_variables = n_layers = 3\nplanarising = 0\nceramic_layers = 0\nfinishing = 0\nlaser_scanning = 1\ndrying_time = 60\nPDL = 0\n
; printer_model = 
; printer_notes = 
; printer_settings_id = Champ - 241125
; printer_technology = FFF
; printer_variant = 
; printer_vendor = 
; raft_contact_distance = 0.1
; raft_expansion = 0
; raft_first_layer_density = 100%
; raft_first_layer_expansion = 0
; raft_interface_layer_height = 0.6
; raft_layer_height = 0.6
; raft_layers = 0
; remaining_times = 0
; remaining_times_type = m73
; resolution = 0.0125
; resolution_internal = 0.2
; retract_before_travel = 5,2
; retract_before_wipe = 0%,0%
; retract_layer_change = 0,0
; retract_length = 0,7
; retract_length_toolchange = 0,0
; retract_lift = 0,0
; retract_lift_above = 1.2,0
; retract_lift_below = 0,0
; retract_lift_first_layer = 1,0
; retract_lift_top = "Not on top";"All surfaces"
; retract_restart_extra = 0.005,0
; retract_restart_extra_toolchange = 0,0
; retract_speed = 1,40
; seam_angle_cost = 80%
; seam_gap = 15%,15%
; seam_notch_all = 0
; seam_notch_angle = 250
; seam_notch_inner = 0
; seam_notch_outer = 0
; seam_position = rear
; seam_travel_cost = 20%
; seam_visibility = 1
; silent_mode = 0
; single_extruder_multi_material = 0
; single_extruder_multi_material_priming = 0
; skirt_brim = 0
; skirt_distance = 8
; skirt_distance_from_brim = 1
; skirt_extrusion_width = 100%
; skirt_height = 13
; skirts = 0
; slice_closing_radius = 0.049
; slicing_mode = regular
; slowdown_below_layer_time = 0,0
; small_perimeter_max_length = 20
; small_perimeter_min_length = 6
; small_perimeter_speed = 15
; solid_fill_pattern = concentricgapfill
; solid_infill_acceleration = 0
; solid_infill_below_area = 70
; solid_infill_every_layers = 0
; solid_infill_extruder = 1
; solid_infill_extrusion_spacing = 
; solid_infill_extrusion_width = 100%
; solid_infill_overlap = 100%
; solid_infill_speed = 50
; solid_over_perimeters = 2
; spiral_vase = 0
; standby_temperature_delta = -5
; start_filament_gcode = ";CERAMIC ON\nG58 \nG0 G90 X0 Y0 \nG0 Z{layer_z+20} \n{if layer_num > 0}G1 Z{layer_z} F540{endif}\n\n";";POLYMER ON  \nG55 \nG0 G90 X0 Y0 Z{layer_z+20} \nM64 P1 ;Engage Polymer solenoid \n{if layer_num > 0}G1 Z{layer_z} F540{endif}\n\n"
; start_gcode = ;CHAMP\n;GCODE generated with Superslicer\n\n;START GCODE\nG58 G1 G90 X0 Y0 Z50 F1500\nG21 G17 G64 \nG58 G0 X0 Y0 Z20 \nG92 A0     ;Reset A Axis\nG55\nG92 B0     ;Reset B Axis\nG58 G90 F540\n{if initial_extruder == 1}\n;M333 ;Turn on hot end and wait for heat up\n{else};M332 ;Turn on build plate and wait for heat up \n{endif}\n;END OF START GCODE\n
; start_gcode_manual = 1
; support_material = 0
; support_material_acceleration = 0
; support_material_angle = 0
; support_material_angle_height = 0
; support_material_auto = 1
; support_material_bottom_contact_distance = 0
; support_material_bottom_interface_layers = -1
; support_material_buildplate_only = 0
; support_material_closing_radius = 2
; support_material_contact_distance = 0
; support_material_contact_distance_type = none
; support_material_enforce_layers = 0
; support_material_extruder = 2
; support_material_extrusion_width = 100%
; support_material_interface_acceleration = 0
; support_material_interface_angle = 90
; support_material_interface_angle_increment = 0
; support_material_interface_contact_loops = 0
; support_material_interface_extruder = 2
; support_material_interface_fan_speed = 1,-1
; support_material_interface_layer_height = 0
; support_material_interface_layers = 2
; support_material_interface_pattern = rectilinear
; support_material_interface_spacing = 0
; support_material_interface_speed = 100%
; support_material_layer_height = 0
; support_material_pattern = rectilinear
; support_material_spacing = 2.5
; support_material_speed = 60
; support_material_style = grid
; support_material_synchronize_layers = 1
; support_material_threshold = 89
; support_material_with_sheath = 1
; support_material_xy_spacing = 50%
; temperature = 0,220
; template_custom_gcode = 
; thin_perimeters = 0%
; thin_perimeters_all = 0%
; thin_walls = 0
; thin_walls_acceleration = 0
; thin_walls_merge = 1
; thin_walls_min_width = 33%
; thin_walls_overlap = 50%
; thin_walls_speed = 30
; threads = 5
; thumbnails = 0x0,0x0
; thumbnails_color = #018aff
; thumbnails_custom_color = 0
; thumbnails_end_file = 0
; thumbnails_format = PNG
; thumbnails_with_bed = 1
; time_cost = 0
; time_estimation_compensation = 100%
; time_start_gcode = 20
; time_toolchange = 30
; tool_name = Ceramic;Polymer
; toolchange_gcode = ;\n
; top_fan_speed = 1,-1
; top_fill_pattern = concentricgapfill
; top_infill_extrusion_spacing = 
; top_infill_extrusion_width = 105%
; top_solid_infill_acceleration = 0
; top_solid_infill_speed = 50
; top_solid_layers = 0
; top_solid_min_thickness = 0
; travel_acceleration = 1500
; travel_deceleration_use_target = 1
; travel_speed = 130
; travel_speed_z = 0
; use_firmware_retraction = 0
; use_relative_e_distances = 0
; use_volumetric_e = 0
; variable_layer_height = 1
; wall_distribution_count = 1
; wall_transition_angle = 10
; wall_transition_filter_deviation = 25%
; wall_transition_length = 100%
; wipe = 0,0
; wipe_advanced = 0
; wipe_advanced_algo = linear
; wipe_advanced_multiplier = 60
; wipe_advanced_nozzle_melted_volume = 120
; wipe_extra_perimeter = 0,0
; wipe_inside_depth = 0%,50%
; wipe_inside_end = 0,1
; wipe_inside_start = 0,0
; wipe_into_infill = 0
; wipe_into_objects = 0
; wipe_only_crossing = 1,1
; wipe_speed = 0,0
; wipe_tower = 0
; wipe_tower_bridging = 10
; wipe_tower_brim_width = 150%
; wipe_tower_no_sparse_layers = 0
; wipe_tower_rotation_angle = 0
; wipe_tower_width = 60
; wipe_tower_x = 180
; wipe_tower_y = 140
; wiping_volumes_extruders = 70,70,70,70
; wiping_volumes_matrix = 0,140,140,0
; xy_inner_size_compensation = 0
; xy_size_compensation = 0
; z_offset = 0
; z_step = 0.005
; SuperSlicer_config = end
