; ============================================================
; ADAPTIVE REPAIR G-CODE
; Layer 0   Z=0.400 mm
; Defects: 4
; ============================================================

G21          ; millimetres
G90          ; absolute positioning
G58          ; work coordinate system
G92 A0

; 
; >>> PHASE 2: UNDEREXTRUSION REPAIRS (4)
;     Re-deposit material into voids on levelled surface
;     Travel optimised: 27.8 -> 19.5 mm (30% saved)
; 
M14  ; purge nozzle

; --- Underextrusion repair  conf=0.93 ---
;     bed region: (1.62,-15.45) -> (15.97,-1.50)
G1 A0.00000 F60
G1 Z1.400 F600
G0 X1.618 Y-15.445 F7800
G1 Z0.400 F600
G1 A0.00000 F60
G0 X1.618 Y-15.445 F7800
G1 X15.970 Y-15.445 A0.00611 F300
G0 X15.970 Y-14.212 F7800
G1 X1.618 Y-14.212 A0.01221 F300
G0 X1.618 Y-12.979 F7800
G1 X15.970 Y-12.979 A0.01832 F300
G0 X15.970 Y-11.746 F7800
G1 X1.618 Y-11.746 A0.02442 F300
G0 X1.618 Y-10.513 F7800
G1 X15.970 Y-10.513 A0.03053 F300
G0 X15.970 Y-9.280 F7800
G1 X1.618 Y-9.280 A0.03663 F300
G0 X1.618 Y-8.047 F7800
G1 X15.970 Y-8.047 A0.04274 F300
G0 X15.970 Y-6.814 F7800
G1 X1.618 Y-6.814 A0.04884 F300
G0 X1.618 Y-5.581 F7800
G1 X15.970 Y-5.581 A0.05495 F300
G0 X15.970 Y-4.348 F7800
G1 X1.618 Y-4.348 A0.06105 F300
G0 X1.618 Y-3.115 F7800
G1 X15.970 Y-3.115 A0.06716 F300
G0 X15.970 Y-1.882 F7800
G1 X1.618 Y-1.882 A0.07326 F300
G1 A0.07326 F60
; --- end underextrusion repair ---

; --- Underextrusion repair  conf=0.90 ---
;     bed region: (4.35,-15.55) -> (16.72,-3.67)
G1 A0.07326 F60
G1 Z1.400 F600
G0 X4.348 Y-15.550 F7800
G1 Z0.400 F600
G1 A0.07326 F60
G0 X4.348 Y-15.550 F7800
G1 X16.723 Y-15.550 A0.07853 F300
G0 X16.723 Y-14.317 F7800
G1 X4.348 Y-14.317 A0.08379 F300
G0 X4.348 Y-13.084 F7800
G1 X16.723 Y-13.084 A0.08906 F300
G0 X16.723 Y-11.851 F7800
G1 X4.348 Y-11.851 A0.09432 F300
G0 X4.348 Y-10.618 F7800
G1 X16.723 Y-10.618 A0.09958 F300
G0 X16.723 Y-9.385 F7800
G1 X4.348 Y-9.385 A0.10485 F300
G0 X4.348 Y-8.152 F7800
G1 X16.723 Y-8.152 A0.11011 F300
G0 X16.723 Y-6.919 F7800
G1 X4.348 Y-6.919 A0.11538 F300
G0 X4.348 Y-5.686 F7800
G1 X16.723 Y-5.686 A0.12064 F300
G0 X16.723 Y-4.453 F7800
G1 X4.348 Y-4.453 A0.12591 F300
G1 A0.12591 F60
; --- end underextrusion repair ---

; --- Underextrusion repair  conf=0.94 ---
;     bed region: (7.62,-15.66) -> (18.09,-4.89)
G1 A0.12591 F60
G1 Z1.400 F600
G0 X7.620 Y-15.655 F7800
G1 Z0.400 F600
G1 A0.12591 F60
G0 X7.620 Y-15.655 F7800
G1 X18.088 Y-15.655 A0.13036 F300
G0 X18.088 Y-14.422 F7800
G1 X7.620 Y-14.422 A0.13481 F300
G0 X7.620 Y-13.189 F7800
G1 X18.088 Y-13.189 A0.13926 F300
G0 X18.088 Y-11.956 F7800
G1 X7.620 Y-11.956 A0.14372 F300
G0 X7.620 Y-10.723 F7800
G1 X18.088 Y-10.723 A0.14817 F300
G0 X18.088 Y-9.490 F7800
G1 X7.620 Y-9.490 A0.15262 F300
G0 X7.620 Y-8.257 F7800
G1 X18.088 Y-8.257 A0.15707 F300
G0 X18.088 Y-7.024 F7800
G1 X7.620 Y-7.024 A0.16153 F300
G0 X7.620 Y-5.791 F7800
G1 X18.088 Y-5.791 A0.16598 F300
G1 A0.16598 F60
; --- end underextrusion repair ---

; --- Underextrusion repair  conf=0.93 ---
;     bed region: (10.46,-15.90) -> (16.30,-10.11)
G1 A0.16598 F60
G1 Z1.400 F600
G0 X10.455 Y-15.900 F7800
G1 Z0.400 F600
G1 A0.16598 F60
G0 X10.455 Y-15.900 F7800
G1 X16.303 Y-15.900 A0.16847 F300
G0 X16.303 Y-14.667 F7800
G1 X10.455 Y-14.667 A0.17095 F300
G0 X10.455 Y-13.434 F7800
G1 X16.303 Y-13.434 A0.17344 F300
G0 X16.303 Y-12.201 F7800
G1 X10.455 Y-12.201 A0.17593 F300
G0 X10.455 Y-10.968 F7800
G1 X16.303 Y-10.968 A0.17842 F300
G1 A0.17842 F60
; --- end underextrusion repair ---

; --- Repair complete ---
G0 Z5.400 F7800
G0 X0.000 Y0.000 F7800
M2  ; program end
